{"type":"FeatureCollection","features":[{"type":"Feature","properties":{"name":"A.E. Crookes Park","kind":"Pool","municipality":"Mississauga"},"geometry":{"type":"Point","coordinates":[-79.56151,43.56834]}},{"type":"Feature","properties":{"name":"Adam Wallace Memorial Park","kind":"Pool","municipality":"Caledon"},"geometry":{"type":"Point","coordinates":[-79.7591,43.87342]}},{"type":"Feature","properties":{"name":"Albion Bolton Community Centre","kind":"Community centre","municipality":"Caledon"},"geometry":{"type":"Point","coordinates":[-79.73521,43.87626]}},{"type":"Feature","properties":{"name":"Alton Library & Community Room","kind":"Community centre","municipality":"Caledon"},"geometry":{"type":"Point","coordinates":[-80.06418,43.85882]}},{"type":"Feature","properties":{"name":"Applewood Heights Outdoor Pool","kind":"Pool","municipality":"Mississauga"},"geometry":{"type":"Point","coordinates":[-79.5936,43.60586]}},{"type":"Feature","properties":{"name":"Balmoral Recreation Centre","kind":"Community centre","municipality":"Brampton"},"geometry":{"type":"Point","coordinates":[-79.71315,43.70722]}},{"type":"Feature","properties":{"name":"Belfountain Community Centre","kind":"Community centre","municipality":"Caledon"},"geometry":{"type":"Point","coordinates":[-80.01248,43.79265]}},{"type":"Feature","properties":{"name":"Burnhamthorpe Community Centre","kind":"Community centre","municipality":"Mississauga"},"geometry":{"type":"Point","coordinates":[-79.59838,43.62284]}},{"type":"Feature","properties":{"name":"Burnhamthorpe Community Centre & Arena","kind":"Arena","municipality":"Mississauga"},"geometry":{"type":"Point","coordinates":[-79.59859,43.62276]}},{"type":"Feature","properties":{"name":"Caledon Central Pool","kind":"Pool","municipality":"Caledon"},"geometry":{"type":"Point","coordinates":[-79.98223,43.86988]}},{"type":"Feature","properties":{"name":"Caledon Centre For Recreation And Wellness","kind":"Community centre","municipality":"Caledon"},"geometry":{"type":"Point","coordinates":[-79.75198,43.89086]}},{"type":"Feature","properties":{"name":"Caledon Community Complex","kind":"Community centre","municipality":"Caledon"},"geometry":{"type":"Point","coordinates":[-79.85995,43.87384]}},{"type":"Feature","properties":{"name":"Caledon Village Place","kind":"Community centre","municipality":"Caledon"},"geometry":{"type":"Point","coordinates":[-79.99305,43.85904]}},{"type":"Feature","properties":{"name":"Cawthra Community Centre","kind":"Community centre","municipality":"Mississauga"},"geometry":{"type":"Point","coordinates":[-79.57674,43.57827]}},{"type":"Feature","properties":{"name":"Cassie Campbell Community Centre","kind":"Community centre","municipality":"Brampton"},"geometry":{"type":"Point","coordinates":[-79.82449,43.69695]}},{"type":"Feature","properties":{"name":"Cawthra Pool","kind":"Pool","municipality":"Mississauga"},"geometry":{"type":"Point","coordinates":[-79.57307,43.57614]}},{"type":"Feature","properties":{"name":"Central Public School Recreation And Art Centre","kind":"Community centre","municipality":"Brampton"},"geometry":{"type":"Point","coordinates":[-79.7631,43.69035]}},{"type":"Feature","properties":{"name":"Century Gardens Recreation Centre","kind":"Community centre","municipality":"Brampton"},"geometry":{"type":"Point","coordinates":[-79.75421,43.70832]}},{"type":"Feature","properties":{"name":"Chep Equipment Pooling System","kind":"Pool","municipality":"Mississauga"},"geometry":{"type":"Point","coordinates":[-79.7787,43.60758]}},{"type":"Feature","properties":{"name":"Chinguacousy Wellness Centre","kind":"Community centre","municipality":"Brampton"},"geometry":{"type":"Point","coordinates":[-79.74253,43.74915]}},{"type":"Feature","properties":{"name":"Chris Gibson Recreation Centre","kind":"Community centre","municipality":"Brampton"},"geometry":{"type":"Point","coordinates":[-79.77632,43.68142]}},{"type":"Feature","properties":{"name":"Civic Centre","kind":"Community centre","municipality":"Brampton"},"geometry":{"type":"Point","coordinates":[-79.71965,43.71834]}},{"type":"Feature","properties":{"name":"Clarkson Arena","kind":"Arena","municipality":"Mississauga"},"geometry":{"type":"Point","coordinates":[-79.65062,43.51179]}},{"type":"Feature","properties":{"name":"Clarkson Community Centre","kind":"Community centre","municipality":"Mississauga"},"geometry":{"type":"Point","coordinates":[-79.65006,43.51154]}},{"type":"Feature","properties":{"name":"Clarkson Pool","kind":"Pool","municipality":"Mississauga"},"geometry":{"type":"Point","coordinates":[-79.64526,43.5042]}},{"type":"Feature","properties":{"name":"David Ramsey Outdoor Pool","kind":"Pool","municipality":"Mississauga"},"geometry":{"type":"Point","coordinates":[-79.67172,43.52736]}},{"type":"Feature","properties":{"name":"David Ramsey Pool","kind":"Pool","municipality":"Mississauga"},"geometry":{"type":"Point","coordinates":[-79.67082,43.52613]}},{"type":"Feature","properties":{"name":"Don Mclean Westacres Pool","kind":"Pool","municipality":"Mississauga"},"geometry":{"type":"Point","coordinates":[-79.58303,43.59132]}},{"type":"Feature","properties":{"name":"Earnscliffe Recreation Centre","kind":"Community centre","municipality":"Brampton"},"geometry":{"type":"Point","coordinates":[-79.69955,43.72329]}},{"type":"Feature","properties":{"name":"Ebenezer Community Centre","kind":"Community centre","municipality":"Brampton"},"geometry":{"type":"Point","coordinates":[-79.66381,43.77208]}},{"type":"Feature","properties":{"name":"Eldorado Park & Outdoor Pool","kind":"Pool","municipality":"Brampton"},"geometry":{"type":"Point","coordinates":[-79.78008,43.64543]}},{"type":"Feature","properties":{"name":"Ellen Mitchell Recreation Centre","kind":"Community centre","municipality":"Brampton"},"geometry":{"type":"Point","coordinates":[-79.74485,43.73373]}},{"type":"Feature","properties":{"name":"Erin Meadows Community Centre","kind":"Community centre","municipality":"Mississauga"},"geometry":{"type":"Point","coordinates":[-79.71748,43.55639]}},{"type":"Feature","properties":{"name":"Erin Mills Twin Arena","kind":"Arena","municipality":"Mississauga"},"geometry":{"type":"Point","coordinates":[-79.7118,43.53691]}},{"type":"Feature","properties":{"name":"Erindale Pool","kind":"Pool","municipality":"Mississauga"},"geometry":{"type":"Point","coordinates":[-79.65454,43.55906]}},{"type":"Feature","properties":{"name":"Flower City Seniors Recreation Centre","kind":"Community centre","municipality":"Brampton"},"geometry":{"type":"Point","coordinates":[-79.76936,43.67141]}},{"type":"Feature","properties":{"name":"Forest Glen","kind":"Pool","municipality":"Mississauga"},"geometry":{"type":"Point","coordinates":[-79.59155,43.62536]}},{"type":"Feature","properties":{"name":"Frank Mckechnie Community Centre","kind":"Community centre","municipality":"Mississauga"},"geometry":{"type":"Point","coordinates":[-79.65308,43.61639]}},{"type":"Feature","properties":{"name":"Frank Mckechnie Pool","kind":"Pool","municipality":"Mississauga"},"geometry":{"type":"Point","coordinates":[-79.65284,43.61653]}},{"type":"Feature","properties":{"name":"Glenforest Pool","kind":"Pool","municipality":"Mississauga"},"geometry":{"type":"Point","coordinates":[-79.59282,43.6273]}},{"type":"Feature","properties":{"name":"Gore Meadows Community Park East","kind":"Community centre","municipality":"Brampton"},"geometry":{"type":"Point","coordinates":[-79.69456,43.79417]}},{"type":"Feature","properties":{"name":"Greenbriar Recreation Centre","kind":"Community centre","municipality":"Brampton"},"geometry":{"type":"Point","coordinates":[-79.71713,43.73591]}},{"type":"Feature","properties":{"name":"Heart Lake Conservation Area","kind":"Pool","municipality":"Brampton"},"geometry":{"type":"Point","coordinates":[-79.79319,43.73847]}},{"type":"Feature","properties":{"name":"Hershey Centre","kind":"Arena","municipality":"Mississauga"},"geometry":{"type":"Point","coordinates":[-79.65374,43.63147]}},{"type":"Feature","properties":{"name":"Howden Recreation Centre","kind":"Community centre","municipality":"Brampton"},"geometry":{"type":"Point","coordinates":[-79.72831,43.72129]}},{"type":"Feature","properties":{"name":"Huron Park Recreation Centre","kind":"Community centre","municipality":"Mississauga"},"geometry":{"type":"Point","coordinates":[-79.63292,43.55913]}},{"type":"Feature","properties":{"name":"Huron Park Swimming And Therapeutic Pool","kind":"Pool","municipality":"Mississauga"},"geometry":{"type":"Point","coordinates":[-79.63356,43.55912]}},{"type":"Feature","properties":{"name":"Huttonville Community Centre","kind":"Community centre","municipality":"Brampton"},"geometry":{"type":"Point","coordinates":[-79.80949,43.6414]}},{"type":"Feature","properties":{"name":"Iceland Mississauga","kind":"Arena","municipality":"Mississauga"},"geometry":{"type":"Point","coordinates":[-79.64904,43.62824]}},{"type":"Feature","properties":{"name":"Inglewood Community Centre","kind":"Community centre","municipality":"Caledon"},"geometry":{"type":"Point","coordinates":[-79.93716,43.79965]}},{"type":"Feature","properties":{"name":"James F. Mccurry Victoria Park Arena","kind":"Arena","municipality":"Brampton"},"geometry":{"type":"Point","coordinates":[-79.69961,43.70538]}},{"type":"Feature","properties":{"name":"Jim Archdekin Recreation Centre","kind":"Community centre","municipality":"Brampton"},"geometry":{"type":"Point","coordinates":[-79.78902,43.71684]}},{"type":"Feature","properties":{"name":"Ken Giles Recreation Centre","kind":"Community centre","municipality":"Brampton"},"geometry":{"type":"Point","coordinates":[-79.72634,43.67721]}},{"type":"Feature","properties":{"name":"Knightsbridge Community & Senior Centre","kind":"Community centre","municipality":"Brampton"},"geometry":{"type":"Point","coordinates":[-79.71693,43.71696]}},{"type":"Feature","properties":{"name":"Lewis Bradley Outdoor Pool","kind":"Pool","municipality":"Mississauga"},"geometry":{"type":"Point","coordinates":[-79.62019,43.50849]}},{"type":"Feature","properties":{"name":"Lions Club Of Credit Valley Outdoor Pool","kind":"Pool","municipality":"Mississauga"},"geometry":{"type":"Point","coordinates":[-79.58265,43.55735]}},{"type":"Feature","properties":{"name":"Lloyd Wilson Centennial Arena","kind":"Arena","municipality":"Caledon"},"geometry":{"type":"Point","coordinates":[-79.92885,43.79473]}},{"type":"Feature","properties":{"name":"Loafer's Lake Recreation Centre","kind":"Community centre","municipality":"Brampton"},"geometry":{"type":"Point","coordinates":[-79.80082,43.72472]}},{"type":"Feature","properties":{"name":"Malton Arena","kind":"Arena","municipality":"Mississauga"},"geometry":{"type":"Point","coordinates":[-79.63143,43.71266]}},{"type":"Feature","properties":{"name":"Malton Community Centre","kind":"Community centre","municipality":"Mississauga"},"geometry":{"type":"Point","coordinates":[-79.63886,43.72346]}},{"type":"Feature","properties":{"name":"Malton Community Centre (Elmcreek Park)","kind":"Pool","municipality":"Mississauga"},"geometry":{"type":"Point","coordinates":[-79.63779,43.72222]}},{"type":"Feature","properties":{"name":"Malton Swimming An Therapeutic Pool","kind":"Pool","municipality":"Mississauga"},"geometry":{"type":"Point","coordinates":[-79.6405,43.72465]}},{"type":"Feature","properties":{"name":"Mayfield Recreation Complex","kind":"Community centre","municipality":"Caledon"},"geometry":{"type":"Point","coordinates":[-79.78383,43.77517]}},{"type":"Feature","properties":{"name":"Meadowvale Community Centre","kind":"Community centre","municipality":"Mississauga"},"geometry":{"type":"Point","coordinates":[-79.75596,43.58539]}},{"type":"Feature","properties":{"name":"Meadowvale Community Centre Pool","kind":"Pool","municipality":"Mississauga"},"geometry":{"type":"Point","coordinates":[-79.75605,43.58556]}},{"type":"Feature","properties":{"name":"Memorial Arena","kind":"Arena","municipality":"Brampton"},"geometry":{"type":"Point","coordinates":[-79.75881,43.6787]}},{"type":"Feature","properties":{"name":"Mississauga Valley Community Centre","kind":"Community centre","municipality":"Mississauga"},"geometry":{"type":"Point","coordinates":[-79.62382,43.59689]}},{"type":"Feature","properties":{"name":"Mount Pleasant Community Centre","kind":"Community centre","municipality":".."},"geometry":{"type":"Point","coordinates":[-79.82394,43.6768]}},{"type":"Feature","properties":{"name":"Paul Coffey Arena","kind":"Arena","municipality":"Mississauga"},"geometry":{"type":"Point","coordinates":[-79.63134,43.71241]}},{"type":"Feature","properties":{"name":"Pool Man Mississauga","kind":"Pool","municipality":"Mississauga"},"geometry":{"type":"Point","coordinates":[-79.69289,43.51744]}},{"type":"Feature","properties":{"name":"Port Credit Arena","kind":"Arena","municipality":"Mississauga"},"geometry":{"type":"Point","coordinates":[-79.58901,43.55301]}},{"type":"Feature","properties":{"name":"Professor's Lake Recreation Centre","kind":"Community centre","municipality":"Brampton"},"geometry":{"type":"Point","coordinates":[-79.73312,43.74652]}},{"type":"Feature","properties":{"name":"Quenippenon Meadows","kind":"Pool","municipality":"Mississauga"},"geometry":{"type":"Point","coordinates":[-79.71472,43.56086]}},{"type":"Feature","properties":{"name":"River Grove Community Centre","kind":"Community centre","municipality":"Mississauga"},"geometry":{"type":"Point","coordinates":[-79.71231,43.5895]}},{"type":"Feature","properties":{"name":"River Grove Pool","kind":"Pool","municipality":"Mississauga"},"geometry":{"type":"Point","coordinates":[-79.71238,43.58979]}},{"type":"Feature","properties":{"name":"Snelgrove Community Centre","kind":"Community centre","municipality":"Brampton"},"geometry":{"type":"Point","coordinates":[-79.82269,43.7309]}},{"type":"Feature","properties":{"name":"South Common Community Centre","kind":"Community centre","municipality":"Mississauga"},"geometry":{"type":"Point","coordinates":[-79.68459,43.54247]}},{"type":"Feature","properties":{"name":"South Common Pool","kind":"Pool","municipality":"Mississauga"},"geometry":{"type":"Point","coordinates":[-79.68448,43.54218]}},{"type":"Feature","properties":{"name":"South Fletcher's Sportsplex","kind":"Community centre","municipality":"Brampton"},"geometry":{"type":"Point","coordinates":[-79.73581,43.65294]}},{"type":"Feature","properties":{"name":"Streetsville Arena","kind":"Arena","municipality":"Mississauga"},"geometry":{"type":"Point","coordinates":[-79.70855,43.57983]}},{"type":"Feature","properties":{"name":"Streetsville Pool","kind":"Pool","municipality":"Mississauga"},"geometry":{"type":"Point","coordinates":[-79.70773,43.57974]}},{"type":"Feature","properties":{"name":"Teen Ranch Canada","kind":"Arena","municipality":"Caledon"},"geometry":{"type":"Point","coordinates":[-80.06073,43.90183]}},{"type":"Feature","properties":{"name":"Terry Miller Recreation Centre","kind":"Community centre","municipality":"Brampton"},"geometry":{"type":"Point","coordinates":[-79.7307,43.73226]}},{"type":"Feature","properties":{"name":"Tomken Twin Arena","kind":"Arena","municipality":"Mississauga"},"geometry":{"type":"Point","coordinates":[-79.62387,43.62371]}},{"type":"Feature","properties":{"name":"Victoria Parks Community Centre","kind":"Community centre","municipality":"Caledon"},"geometry":{"type":"Point","coordinates":[-79.97135,43.94459]}},{"type":"Feature","properties":{"name":"Warren Marshall Arena & Ron Searle Arena","kind":"Arena","municipality":"Mississauga"},"geometry":{"type":"Point","coordinates":[-79.57649,43.57852]}},{"type":"Feature","properties":{"name":"Westwood Pool","kind":"Pool","municipality":"Mississauga"},"geometry":{"type":"Point","coordinates":[-79.64062,43.72465]}}]}