{"type":"FeatureCollection","name":"peel_winter_vuln_onmarg2021","features":[{"type":"Feature","properties":{"CTUID":"5350573.06","MR_q":3,"HD_q":1,"pop2021":4611},"geometry":{"type":"Polygon","coordinates":[[[-79.78493,43.69043],[-79.78727,43.68839],[-79.79757,43.696],[-79.79206,43.70092],[-79.78164,43.69341],[-79.78493,43.69043]]]}},{"type":"Feature","properties":{"CTUID":"5350573.07","MR_q":4,"HD_q":4,"pop2021":6129},"geometry":{"type":"Polygon","coordinates":[[[-79.76973,43.67695],[-79.77065,43.6761],[-79.78727,43.68839],[-79.78164,43.69341],[-79.77165,43.68895],[-79.76817,43.6861],[-79.77036,43.68475],[-79.76538,43.68098],[-79.76973,43.67695]]]}},{"type":"Feature","properties":{"CTUID":"5350576.16","MR_q":4,"HD_q":1,"pop2021":6366},"geometry":{"type":"Polygon","coordinates":[[[-79.75454,43.73498],[-79.76875,43.7452],[-79.76367,43.74996],[-79.75543,43.7438],[-79.75325,43.73957],[-79.75108,43.73809],[-79.75454,43.73498]]]}},{"type":"Feature","properties":{"CTUID":"5350576.17","MR_q":4,"HD_q":1,"pop2021":6724},"geometry":{"type":"Polygon","coordinates":[[[-79.75091,43.73825],[-79.75325,43.73957],[-79.75543,43.7438],[-79.76367,43.74996],[-79.75732,43.75407],[-79.74419,43.74438],[-79.75091,43.73825]]]}},{"type":"Feature","properties":{"CTUID":"5350585.09","MR_q":2,"HD_q":2,"pop2021":5872},"geometry":{"type":"Polygon","coordinates":[[[-79.72066,43.87128],[-79.72328,43.86903],[-79.73825,43.8796],[-79.72924,43.88656],[-79.71831,43.88805],[-79.7118,43.87628],[-79.72066,43.87128]]]}},{"type":"Feature","properties":{"CTUID":"5350585.10","MR_q":2,"HD_q":2,"pop2021":4628},"geometry":{"type":"Polygon","coordinates":[[[-79.6955,43.84885],[-79.72328,43.86903],[-79.7118,43.87628],[-79.69763,43.8519],[-79.69495,43.85004],[-79.6955,43.84885]]]}},{"type":"Feature","properties":{"CTUID":"5350586.02","MR_q":3,"HD_q":2,"pop2021":3032},"geometry":{"type":"Polygon","coordinates":[[[-79.91565,43.80081],[-79.83705,43.74256],[-79.83202,43.74008],[-79.83088,43.73822],[-79.83648,43.73366],[-79.82992,43.72913],[-79.8771,43.68469],[-79.88887,43.67489],[-79.97964,43.74237],[-79.91565,43.80081]]]}},{"type":"Feature","properties":{"CTUID":"5350516.30","MR_q":1,"HD_q":1,"pop2021":5955},"geometry":{"type":"Polygon","coordinates":[[[-79.69801,43.57578],[-79.694,43.57447],[-79.69286,43.57258],[-79.69346,43.57046],[-79.70655,43.5589],[-79.72258,43.56993],[-79.71732,43.57541],[-79.71222,43.57127],[-79.70648,43.57506],[-79.69801,43.57578]]]}},{"type":"Feature","properties":{"CTUID":"5350516.31","MR_q":1,"HD_q":1,"pop2021":2713},"geometry":{"type":"Polygon","coordinates":[[[-79.69225,43.56952],[-79.6908,43.56851],[-79.69045,43.56657],[-79.68797,43.56692],[-79.68328,43.56543],[-79.68628,43.56289],[-79.69811,43.55489],[-79.70655,43.5589],[-79.69346,43.57046],[-79.69225,43.56952]]]}},{"type":"Feature","properties":{"CTUID":"5350516.32","MR_q":2,"HD_q":1,"pop2021":4971},"geometry":{"type":"Polygon","coordinates":[[[-79.78141,43.57025],[-79.78486,43.56774],[-79.7898,43.57173],[-79.77634,43.58383],[-79.77123,43.58016],[-79.78141,43.57025]]]}},{"type":"Feature","properties":{"CTUID":"5350520.07","MR_q":4,"HD_q":5,"pop2021":4929},"geometry":{"type":"Polygon","coordinates":[[[-79.61896,43.57806],[-79.62281,43.57841],[-79.62694,43.58067],[-79.62226,43.58459],[-79.61644,43.58027],[-79.61896,43.57806]]]}},{"type":"Feature","properties":{"CTUID":"5350520.08","MR_q":4,"HD_q":3,"pop2021":6094},"geometry":{"type":"Polygon","coordinates":[[[-79.62281,43.57841],[-79.61944,43.57763],[-79.63288,43.56597],[-79.64004,43.57102],[-79.62694,43.58067],[-79.62281,43.57841]]]}},{"type":"Feature","properties":{"CTUID":"5350528.32","MR_q":2,"HD_q":1,"pop2021":4088},"geometry":{"type":"Polygon","coordinates":[[[-79.69606,43.61169],[-79.70107,43.60735],[-79.70741,43.61198],[-79.71254,43.61341],[-79.71238,43.61567],[-79.7153,43.61782],[-79.69974,43.62396],[-79.69023,43.61693],[-79.69606,43.61169]]]}},{"type":"Feature","properties":{"CTUID":"5350528.33","MR_q":2,"HD_q":1,"pop2021":6224},"geometry":{"type":"Polygon","coordinates":[[[-79.71227,43.61328],[-79.70741,43.61198],[-79.70107,43.60735],[-79.71753,43.59264],[-79.71795,43.59455],[-79.72298,43.59634],[-79.72488,43.6003],[-79.71852,43.60085],[-79.71815,43.60352],[-79.71508,43.60473],[-79.71247,43.60779],[-79.71575,43.60983],[-79.72141,43.60714],[-79.72908,43.61227],[-79.7153,43.61782],[-79.71238,43.61567],[-79.71306,43.6142],[-79.71227,43.61328]]]}},{"type":"Feature","properties":{"CTUID":"5350528.34","MR_q":3,"HD_q":2,"pop2021":5810},"geometry":{"type":"Polygon","coordinates":[[[-79.64817,43.62076],[-79.65518,43.61619],[-79.66098,43.61609],[-79.66343,43.61455],[-79.68435,43.62999],[-79.66884,43.63607],[-79.64817,43.62076]]]}},{"type":"Feature","properties":{"CTUID":"5350528.35","MR_q":3,"HD_q":1,"pop2021":3056},"geometry":{"type":"Polygon","coordinates":[[[-79.60746,43.64466],[-79.60047,43.64379],[-79.60229,43.64096],[-79.61794,43.62802],[-79.63171,43.61415],[-79.6324,43.61786],[-79.63615,43.62174],[-79.6422,43.6164],[-79.66884,43.63607],[-79.62716,43.6526],[-79.61029,43.66136],[-79.59129,43.66892],[-79.58876,43.66461],[-79.60885,43.64643],[-79.60746,43.64466]]]}},{"type":"Feature","properties":{"CTUID":"5350530.01","MR_q":5,"HD_q":3,"pop2021":5217},"geometry":{"type":"Polygon","coordinates":[[[-79.62656,43.72514],[-79.62481,43.72352],[-79.62539,43.72148],[-79.6294,43.71818],[-79.63154,43.71955],[-79.63646,43.71712],[-79.6419,43.72109],[-79.63861,43.72412],[-79.63015,43.72564],[-79.62656,43.72514]]]}},{"type":"Feature","properties":{"CTUID":"5350530.02","MR_q":5,"HD_q":4,"pop2021":3117},"geometry":{"type":"Polygon","coordinates":[[[-79.62687,43.71796],[-79.63165,43.71356],[-79.63646,43.71712],[-79.63154,43.71955],[-79.62902,43.71839],[-79.62552,43.7212],[-79.62479,43.7233],[-79.62574,43.72511],[-79.62399,43.72565],[-79.62218,43.72238],[-79.62687,43.71796]]]}},{"type":"Feature","properties":{"CTUID":"5350573.09","MR_q":4,"HD_q":2,"pop2021":6086},"geometry":{"type":"Polygon","coordinates":[[[-79.78037,43.68128],[-79.79121,43.67366],[-79.80237,43.68193],[-79.79804,43.68326],[-79.79264,43.68319],[-79.78727,43.68839],[-79.77913,43.68237],[-79.78037,43.68128]]]}},{"type":"Feature","properties":{"CTUID":"5350528.39","MR_q":1,"HD_q":1,"pop2021":6827},"geometry":{"type":"Polygon","coordinates":[[[-79.73636,43.62773],[-79.7348,43.627],[-79.73462,43.62504],[-79.73205,43.62476],[-79.73327,43.62213],[-79.74136,43.61485],[-79.73948,43.61287],[-79.74314,43.61326],[-79.74758,43.61019],[-79.74916,43.61169],[-79.75198,43.61006],[-79.74617,43.60566],[-79.75761,43.60276],[-79.78815,43.6005],[-79.79036,43.60223],[-79.77815,43.60957],[-79.76093,43.61468],[-79.74587,43.62872],[-79.74317,43.62906],[-79.73884,43.63314],[-79.73608,43.63165],[-79.73603,43.62981],[-79.73737,43.62873],[-79.73636,43.62773]]]}},{"type":"Feature","properties":{"CTUID":"5350528.40","MR_q":2,"HD_q":1,"pop2021":6071},"geometry":{"type":"Polygon","coordinates":[[[-79.73103,43.61166],[-79.74617,43.60566],[-79.75198,43.61006],[-79.74916,43.61169],[-79.74758,43.61019],[-79.74314,43.61326],[-79.73948,43.61287],[-79.74136,43.61485],[-79.72229,43.63279],[-79.70789,43.62074],[-79.73103,43.61166]]]}},{"type":"Feature","properties":{"CTUID":"5350528.42","MR_q":3,"HD_q":1,"pop2021":5315},"geometry":{"type":"Polygon","coordinates":[[[-79.69216,43.60952],[-79.68089,43.59895],[-79.6851,43.59545],[-79.70107,43.60735],[-79.6956,43.61209],[-79.69216,43.60952]]]}},{"type":"Feature","properties":{"CTUID":"5350528.43","MR_q":3,"HD_q":1,"pop2021":4975},"geometry":{"type":"Polygon","coordinates":[[[-79.67118,43.59371],[-79.66905,43.59229],[-79.67443,43.58762],[-79.6851,43.59545],[-79.68089,43.59895],[-79.67118,43.59371]]]}},{"type":"Feature","properties":{"CTUID":"5350576.20","MR_q":4,"HD_q":1,"pop2021":6606},"geometry":{"type":"Polygon","coordinates":[[[-79.75091,43.75641],[-79.74755,43.75583],[-79.73942,43.74923],[-79.74419,43.74438],[-79.75732,43.75407],[-79.75442,43.75742],[-79.75091,43.75641]]]}},{"type":"Feature","properties":{"CTUID":"5350576.22","MR_q":4,"HD_q":1,"pop2021":7297},"geometry":{"type":"Polygon","coordinates":[[[-79.72352,43.76428],[-79.72218,43.76328],[-79.73389,43.75435],[-79.74864,43.76525],[-79.7454,43.76657],[-79.73807,43.76659],[-79.73007,43.76902],[-79.72352,43.76428]]]}},{"type":"Feature","properties":{"CTUID":"5350576.29","MR_q":3,"HD_q":1,"pop2021":4160},"geometry":{"type":"Polygon","coordinates":[[[-79.8156,43.67652],[-79.81731,43.67618],[-79.8154,43.67978],[-79.8085,43.68628],[-79.79909,43.67987],[-79.8156,43.67652]]]}},{"type":"Feature","properties":{"CTUID":"5350503.00","MR_q":4,"HD_q":4,"pop2021":4946},"geometry":{"type":"Polygon","coordinates":[[[-79.65781,43.50546],[-79.66367,43.50974],[-79.64776,43.5243],[-79.64095,43.51919],[-79.64995,43.50948],[-79.65538,43.50757],[-79.65781,43.50546]]]}},{"type":"Feature","properties":{"CTUID":"5350504.00","MR_q":2,"HD_q":2,"pop2021":3419},"geometry":{"type":"Polygon","coordinates":[[[-79.63145,43.51522],[-79.6332,43.51361],[-79.64776,43.5243],[-79.64129,43.5302],[-79.62666,43.51964],[-79.63145,43.51522]]]}},{"type":"Feature","properties":{"CTUID":"5350506.00","MR_q":1,"HD_q":1,"pop2021":2609},"geometry":{"type":"Polygon","coordinates":[[[-79.58903,43.55419],[-79.59183,43.55159],[-79.60962,43.55694],[-79.59984,43.56811],[-79.58519,43.55775],[-79.58903,43.55419]]]}},{"type":"Feature","properties":{"CTUID":"5350507.00","MR_q":1,"HD_q":2,"pop2021":3707},"geometry":{"type":"Polygon","coordinates":[[[-79.58457,43.57292],[-79.57578,43.56736],[-79.58519,43.55775],[-79.59984,43.56811],[-79.59015,43.57701],[-79.58457,43.57292]]]}},{"type":"Feature","properties":{"CTUID":"5350508.00","MR_q":2,"HD_q":2,"pop2021":3533},"geometry":{"type":"Polygon","coordinates":[[[-79.57229,43.56955],[-79.57629,43.56589],[-79.57689,43.56631],[-79.57578,43.56736],[-79.59015,43.57701],[-79.58303,43.58353],[-79.57997,43.57945],[-79.56951,43.57205],[-79.57229,43.56955]]]}},{"type":"Feature","properties":{"CTUID":"5350510.00","MR_q":2,"HD_q":2,"pop2021":5388},"geometry":{"type":"Polygon","coordinates":[[[-79.56403,43.62454],[-79.5656,43.62437],[-79.5656,43.6216],[-79.56703,43.62078],[-79.56661,43.6178],[-79.56849,43.61438],[-79.56392,43.61267],[-79.5673,43.61071],[-79.56675,43.60872],[-79.5598,43.60502],[-79.58303,43.58353],[-79.6,43.59467],[-79.56655,43.62558],[-79.56381,43.62701],[-79.56403,43.62454]]]}},{"type":"Feature","properties":{"CTUID":"5350512.00","MR_q":4,"HD_q":4,"pop2021":6056},"geometry":{"type":"Polygon","coordinates":[[[-79.59116,43.58851],[-79.6075,43.57404],[-79.61644,43.58027],[-79.6,43.59467],[-79.59116,43.58851]]]}},{"type":"Feature","properties":{"CTUID":"5350517.00","MR_q":4,"HD_q":2,"pop2021":1710},"geometry":{"type":"Polygon","coordinates":[[[-79.66525,43.56013],[-79.65744,43.55902],[-79.65754,43.55802],[-79.65442,43.55677],[-79.65285,43.55409],[-79.6488,43.55173],[-79.65108,43.5475],[-79.65804,43.54323],[-79.65814,43.54489],[-79.65541,43.54776],[-79.65529,43.54953],[-79.6639,43.55596],[-79.66759,43.55572],[-79.67272,43.5608],[-79.66948,43.56377],[-79.66525,43.56013]]]}},{"type":"Feature","properties":{"CTUID":"5350518.00","MR_q":5,"HD_q":4,"pop2021":4328},"geometry":{"type":"Polygon","coordinates":[[[-79.64859,43.55213],[-79.65242,43.55373],[-79.65442,43.55677],[-79.65754,43.55802],[-79.65744,43.55902],[-79.65053,43.56283],[-79.64281,43.55741],[-79.64859,43.55213]]]}},{"type":"Feature","properties":{"CTUID":"5350519.00","MR_q":4,"HD_q":3,"pop2021":3975},"geometry":{"type":"Polygon","coordinates":[[[-79.65665,43.55958],[-79.66112,43.55898],[-79.66545,43.56019],[-79.66948,43.56377],[-79.66135,43.57076],[-79.65053,43.56283],[-79.65665,43.55958]]]}},{"type":"Feature","properties":{"CTUID":"5350522.00","MR_q":3,"HD_q":3,"pop2021":6034},"geometry":{"type":"Polygon","coordinates":[[[-79.5999,43.59476],[-79.61865,43.60789],[-79.6117,43.61361],[-79.59354,43.60057],[-79.5999,43.59476]]]}},{"type":"Feature","properties":{"CTUID":"5350523.00","MR_q":5,"HD_q":4,"pop2021":6084},"geometry":{"type":"Polygon","coordinates":[[[-79.6021,43.60857],[-79.60338,43.60737],[-79.61206,43.61385],[-79.60256,43.62255],[-79.59458,43.61678],[-79.6021,43.60857]]]}},{"type":"Feature","properties":{"CTUID":"5350560.00","MR_q":4,"HD_q":3,"pop2021":6482},"geometry":{"type":"Polygon","coordinates":[[[-79.6751,43.69879],[-79.6776,43.69534],[-79.70536,43.71542],[-79.70261,43.71946],[-79.69741,43.7212],[-79.70012,43.72641],[-79.69764,43.72742],[-79.67158,43.7083],[-79.67388,43.70627],[-79.6734,43.70113],[-79.6751,43.69879]]]}},{"type":"Feature","properties":{"CTUID":"5350561.00","MR_q":4,"HD_q":4,"pop2021":6821},"geometry":{"type":"Polygon","coordinates":[[[-79.67913,43.69292],[-79.68426,43.68268],[-79.71611,43.70587],[-79.70536,43.71542],[-79.6776,43.69534],[-79.67913,43.69292]]]}},{"type":"Feature","properties":{"CTUID":"5350574.00","MR_q":3,"HD_q":5,"pop2021":6640},"geometry":{"type":"Polygon","coordinates":[[[-79.76606,43.69454],[-79.76286,43.69418],[-79.76151,43.69233],[-79.75433,43.68969],[-79.75358,43.68788],[-79.74939,43.68554],[-79.7496,43.6826],[-79.75235,43.68028],[-79.75371,43.68128],[-79.75915,43.67633],[-79.77036,43.68475],[-79.76817,43.6861],[-79.77041,43.68799],[-79.76694,43.69112],[-79.7694,43.69295],[-79.76713,43.69507],[-79.76606,43.69454]]]}},{"type":"Feature","properties":{"CTUID":"5350516.37","MR_q":3,"HD_q":5,"pop2021":9288},"geometry":{"type":"Polygon","coordinates":[[[-79.70963,43.54527],[-79.71085,43.54428],[-79.71753,43.54918],[-79.70655,43.5589],[-79.69811,43.55489],[-79.70963,43.54527]]]}},{"type":"Feature","properties":{"CTUID":"5350516.38","MR_q":3,"HD_q":1,"pop2021":6492},"geometry":{"type":"Polygon","coordinates":[[[-79.72597,43.53164],[-79.72817,43.52999],[-79.72993,43.53092],[-79.72958,43.5295],[-79.73508,43.53318],[-79.71753,43.54918],[-79.71085,43.54428],[-79.72597,43.53164]]]}},{"type":"Feature","properties":{"CTUID":"5350516.39","MR_q":3,"HD_q":1,"pop2021":5087},"geometry":{"type":"Polygon","coordinates":[[[-79.78009,43.58543],[-79.78203,43.58387],[-79.78497,43.58591],[-79.78681,43.58584],[-79.79431,43.57971],[-79.7987,43.57787],[-79.80802,43.58481],[-79.81025,43.58851],[-79.79992,43.59712],[-79.78822,43.60056],[-79.78208,43.59609],[-79.78714,43.59167],[-79.77936,43.58603],[-79.78009,43.58543]]]}},{"type":"Feature","properties":{"CTUID":"5350516.40","MR_q":2,"HD_q":1,"pop2021":6304},"geometry":{"type":"Polygon","coordinates":[[[-79.77634,43.58383],[-79.7898,43.57173],[-79.7987,43.57787],[-79.79431,43.57971],[-79.78646,43.58597],[-79.78203,43.58387],[-79.77936,43.58603],[-79.77634,43.58383]]]}},{"type":"Feature","properties":{"CTUID":"5350516.41","MR_q":2,"HD_q":2,"pop2021":5727},"geometry":{"type":"Polygon","coordinates":[[[-79.73852,43.55965],[-79.7413,43.55851],[-79.74932,43.56439],[-79.74417,43.56872],[-79.73361,43.56089],[-79.73852,43.55965]]]}},{"type":"Feature","properties":{"CTUID":"5350516.43","MR_q":2,"HD_q":3,"pop2021":3930},"geometry":{"type":"Polygon","coordinates":[[[-79.70722,43.55829],[-79.71206,43.55395],[-79.72828,43.56563],[-79.72258,43.56993],[-79.70655,43.5589],[-79.70722,43.55829]]]}},{"type":"Feature","properties":{"CTUID":"5350516.44","MR_q":3,"HD_q":2,"pop2021":5237},"geometry":{"type":"Polygon","coordinates":[[[-79.71856,43.55842],[-79.71206,43.55395],[-79.71753,43.54918],[-79.73361,43.56089],[-79.72828,43.56563],[-79.72233,43.56214],[-79.71856,43.55842]]]}},{"type":"Feature","properties":{"CTUID":"5350520.09","MR_q":2,"HD_q":5,"pop2021":7166},"geometry":{"type":"Polygon","coordinates":[[[-79.63188,43.5865],[-79.6329,43.5858],[-79.63513,43.58737],[-79.63338,43.58899],[-79.63787,43.59144],[-79.63503,43.59376],[-79.62906,43.5893],[-79.63188,43.5865]]]}},{"type":"Feature","properties":{"CTUID":"5350528.44","MR_q":3,"HD_q":1,"pop2021":1887},"geometry":{"type":"Polygon","coordinates":[[[-79.63212,43.61379],[-79.63789,43.60876],[-79.63959,43.6106],[-79.64008,43.61436],[-79.6422,43.6164],[-79.63615,43.62174],[-79.6324,43.61786],[-79.63212,43.61379]]]}},{"type":"Feature","properties":{"CTUID":"5350528.45","MR_q":5,"HD_q":3,"pop2021":5454},"geometry":{"type":"Polygon","coordinates":[[[-79.64544,43.60168],[-79.65289,43.60679],[-79.6422,43.6164],[-79.64008,43.61436],[-79.63959,43.6106],[-79.63789,43.60876],[-79.64544,43.60168]]]}},{"type":"Feature","properties":{"CTUID":"5350528.46","MR_q":3,"HD_q":1,"pop2021":6862},"geometry":{"type":"Polygon","coordinates":[[[-79.70127,43.59984],[-79.7019,43.59845],[-79.69899,43.59631],[-79.70466,43.59224],[-79.71208,43.59765],[-79.70107,43.60735],[-79.69873,43.60561],[-79.70127,43.59984]]]}},{"type":"Feature","properties":{"CTUID":"5350528.47","MR_q":4,"HD_q":1,"pop2021":5044},"geometry":{"type":"Polygon","coordinates":[[[-79.69636,43.58739],[-79.69724,43.58675],[-79.70466,43.59224],[-79.69899,43.59631],[-79.7019,43.59845],[-79.69873,43.60561],[-79.6851,43.59545],[-79.6906,43.59054],[-79.69636,43.58739]]]}},{"type":"Feature","properties":{"CTUID":"5350528.49","MR_q":2,"HD_q":1,"pop2021":4740},"geometry":{"type":"Polygon","coordinates":[[[-79.72293,43.63129],[-79.73327,43.62213],[-79.73205,43.62485],[-79.73462,43.62504],[-79.73487,43.6271],[-79.73729,43.62844],[-79.7359,43.63029],[-79.73738,43.633],[-79.74016,43.63246],[-79.74327,43.62901],[-79.74587,43.62872],[-79.7397,43.63861],[-79.73662,43.64102],[-79.7241,43.63507],[-79.72229,43.63279],[-79.72293,43.63129]]]}},{"type":"Feature","properties":{"CTUID":"5350562.12","MR_q":5,"HD_q":5,"pop2021":7158},"geometry":{"type":"Polygon","coordinates":[[[-79.73231,43.70157],[-79.73811,43.70563],[-79.72794,43.71486],[-79.72252,43.71078],[-79.72501,43.70663],[-79.72984,43.70229],[-79.73231,43.70157]]]}},{"type":"Feature","properties":{"CTUID":"5350562.13","MR_q":4,"HD_q":2,"pop2021":1192},"geometry":{"type":"Polygon","coordinates":[[[-79.70326,43.6964],[-79.68426,43.68268],[-79.69023,43.66962],[-79.73248,43.70154],[-79.72984,43.70229],[-79.72501,43.70663],[-79.72252,43.71078],[-79.70326,43.6964]]]}},{"type":"Feature","properties":{"CTUID":"5350562.14","MR_q":3,"HD_q":1,"pop2021":3889},"geometry":{"type":"Polygon","coordinates":[[[-79.74586,43.72164],[-79.74679,43.72028],[-79.75297,43.72342],[-79.75429,43.72503],[-79.75393,43.72678],[-79.75978,43.73026],[-79.75481,43.73474],[-79.74211,43.72535],[-79.74586,43.72164]]]}},{"type":"Feature","properties":{"CTUID":"5350562.15","MR_q":4,"HD_q":1,"pop2021":3624},"geometry":{"type":"Polygon","coordinates":[[[-79.7517,43.71576],[-79.76495,43.72561],[-79.75978,43.73026],[-79.75393,43.72678],[-79.75429,43.72503],[-79.75322,43.72358],[-79.74679,43.72028],[-79.7517,43.71576]]]}},{"type":"Feature","properties":{"CTUID":"5350572.09","MR_q":3,"HD_q":1,"pop2021":4674},"geometry":{"type":"Polygon","coordinates":[[[-79.76204,43.66271],[-79.76185,43.65642],[-79.76447,43.65402],[-79.76769,43.65641],[-79.76557,43.65936],[-79.76676,43.66077],[-79.77431,43.66377],[-79.77582,43.66674],[-79.77886,43.66889],[-79.77065,43.6761],[-79.76241,43.67006],[-79.76204,43.66271]]]}},{"type":"Feature","properties":{"CTUID":"5350572.10","MR_q":3,"HD_q":1,"pop2021":3567},"geometry":{"type":"Polygon","coordinates":[[[-79.77108,43.66247],[-79.76801,43.66168],[-79.76557,43.65936],[-79.76769,43.65641],[-79.78149,43.66654],[-79.77886,43.66889],[-79.77582,43.66674],[-79.77495,43.66422],[-79.77108,43.66247]]]}},{"type":"Feature","properties":{"CTUID":"5350573.10","MR_q":3,"HD_q":1,"pop2021":3168},"geometry":{"type":"Polygon","coordinates":[[[-79.78927,43.68589],[-79.79093,43.68439],[-79.79869,43.68747],[-79.80301,43.69133],[-79.79757,43.696],[-79.78727,43.68839],[-79.78927,43.68589]]]}},{"type":"Feature","properties":{"CTUID":"5350573.11","MR_q":4,"HD_q":1,"pop2021":4944},"geometry":{"type":"Polygon","coordinates":[[[-79.79427,43.6829],[-79.79804,43.68326],[-79.80237,43.68193],[-79.8085,43.68628],[-79.80301,43.69133],[-79.79908,43.68764],[-79.79093,43.68439],[-79.79427,43.6829]]]}},{"type":"Feature","properties":{"CTUID":"5350576.31","MR_q":2,"HD_q":1,"pop2021":3726},"geometry":{"type":"Polygon","coordinates":[[[-79.81993,43.73836],[-79.81832,43.73828],[-79.81904,43.73731],[-79.81671,43.73619],[-79.81726,43.73484],[-79.81631,43.73526],[-79.81599,43.73437],[-79.81704,43.73303],[-79.81489,43.73371],[-79.81325,43.7317],[-79.81243,43.73211],[-79.81148,43.72981],[-79.80942,43.73006],[-79.81401,43.7258],[-79.82493,43.73377],[-79.82992,43.72913],[-79.83648,43.73366],[-79.82549,43.74246],[-79.81993,43.73836]]]}},{"type":"Feature","properties":{"CTUID":"5350576.33","MR_q":3,"HD_q":1,"pop2021":2624},"geometry":{"type":"Polygon","coordinates":[[[-79.80871,43.72927],[-79.80593,43.72657],[-79.80199,43.72641],[-79.8018,43.7247],[-79.79909,43.72323],[-79.79723,43.72346],[-79.80303,43.71778],[-79.81401,43.7258],[-79.80942,43.73006],[-79.80871,43.72927]]]}},{"type":"Feature","properties":{"CTUID":"5350576.34","MR_q":3,"HD_q":1,"pop2021":5987},"geometry":{"type":"Polygon","coordinates":[[[-79.81183,43.70662],[-79.82447,43.7158],[-79.81401,43.7258],[-79.80303,43.71778],[-79.80957,43.71147],[-79.81183,43.70662]]]}},{"type":"Feature","properties":{"CTUID":"5350576.43","MR_q":3,"HD_q":1,"pop2021":6487},"geometry":{"type":"Polygon","coordinates":[[[-79.79971,43.69421],[-79.80301,43.69133],[-79.80803,43.69495],[-79.81239,43.69498],[-79.81988,43.69923],[-79.81192,43.70656],[-79.79757,43.696],[-79.79971,43.69421]]]}},{"type":"Feature","properties":{"CTUID":"5350576.44","MR_q":3,"HD_q":1,"pop2021":2727},"geometry":{"type":"Polygon","coordinates":[[[-79.81212,43.6949],[-79.80803,43.69495],[-79.80301,43.69133],[-79.8085,43.68628],[-79.82277,43.69685],[-79.81988,43.69923],[-79.81212,43.6949]]]}},{"type":"Feature","properties":{"CTUID":"5350516.48","MR_q":3,"HD_q":1,"pop2021":6541},"geometry":{"type":"Polygon","coordinates":[[[-79.72671,43.54823],[-79.72763,43.54772],[-79.7413,43.55851],[-79.73361,43.56089],[-79.72278,43.55297],[-79.72671,43.54823]]]}},{"type":"Feature","properties":{"CTUID":"5350576.52","MR_q":3,"HD_q":1,"pop2021":5738},"geometry":{"type":"Polygon","coordinates":[[[-79.83414,43.68978],[-79.83555,43.68879],[-79.84605,43.69661],[-79.83963,43.7021],[-79.83881,43.70163],[-79.83567,43.69759],[-79.82992,43.69341],[-79.83414,43.68978]]]}},{"type":"Feature","properties":{"CTUID":"5350576.53","MR_q":3,"HD_q":1,"pop2021":4365},"geometry":{"type":"Polygon","coordinates":[[[-79.82686,43.69542],[-79.82992,43.69341],[-79.83567,43.69759],[-79.83704,43.7004],[-79.83963,43.7021],[-79.83531,43.70613],[-79.82277,43.69685],[-79.82686,43.69542]]]}},{"type":"Feature","properties":{"CTUID":"5350576.54","MR_q":3,"HD_q":1,"pop2021":5729},"geometry":{"type":"Polygon","coordinates":[[[-79.75554,43.75575],[-79.75732,43.75407],[-79.78184,43.77219],[-79.77188,43.78239],[-79.76108,43.77441],[-79.76717,43.76804],[-79.76339,43.76717],[-79.75756,43.76291],[-79.75715,43.75927],[-79.75442,43.75742],[-79.75554,43.75575]]]}},{"type":"Feature","properties":{"CTUID":"5350576.55","MR_q":4,"HD_q":1,"pop2021":6734},"geometry":{"type":"Polygon","coordinates":[[[-79.75356,43.75891],[-79.75442,43.75742],[-79.75589,43.75798],[-79.75727,43.75951],[-79.75772,43.76306],[-79.76339,43.76717],[-79.76717,43.76804],[-79.76108,43.77441],[-79.74864,43.76525],[-79.7516,43.76264],[-79.75356,43.75891]]]}},{"type":"Feature","properties":{"CTUID":"5350576.57","MR_q":3,"HD_q":2,"pop2021":4141},"geometry":{"type":"Polygon","coordinates":[[[-79.68501,43.77076],[-79.67304,43.76169],[-79.68449,43.75313],[-79.70711,43.76994],[-79.7037,43.77225],[-79.6996,43.77316],[-79.69313,43.77105],[-79.68824,43.77318],[-79.68501,43.77076]]]}},{"type":"Feature","properties":{"CTUID":"5350576.59","MR_q":4,"HD_q":1,"pop2021":6394},"geometry":{"type":"Polygon","coordinates":[[[-79.76762,43.75302],[-79.76367,43.74996],[-79.76875,43.7452],[-79.7817,43.75452],[-79.77724,43.75854],[-79.76762,43.75302]]]}},{"type":"Feature","properties":{"CTUID":"5350576.62","MR_q":4,"HD_q":1,"pop2021":6824},"geometry":{"type":"Polygon","coordinates":[[[-79.66217,43.77307],[-79.66323,43.77217],[-79.67369,43.77999],[-79.66905,43.78333],[-79.6586,43.78487],[-79.65501,43.77852],[-79.66217,43.77307]]]}},{"type":"Feature","properties":{"CTUID":"5350576.63","MR_q":4,"HD_q":1,"pop2021":6577},"geometry":{"type":"Polygon","coordinates":[[[-79.68761,43.77364],[-79.68824,43.77318],[-79.70047,43.78236],[-79.68987,43.79195],[-79.67369,43.77999],[-79.67921,43.77542],[-79.68761,43.77364]]]}},{"type":"Feature","properties":{"CTUID":"5350576.65","MR_q":4,"HD_q":1,"pop2021":3054},"geometry":{"type":"Polygon","coordinates":[[[-79.67249,43.76194],[-79.67391,43.76255],[-79.65501,43.77852],[-79.64855,43.76716],[-79.66547,43.76433],[-79.67249,43.76194]]]}},{"type":"Feature","properties":{"CTUID":"5350576.66","MR_q":4,"HD_q":1,"pop2021":6457},"geometry":{"type":"Polygon","coordinates":[[[-79.74108,43.77713],[-79.73007,43.76902],[-79.73744,43.76676],[-79.74048,43.77043],[-79.74477,43.773],[-79.74809,43.77345],[-79.75537,43.77881],[-79.76108,43.77441],[-79.77188,43.78239],[-79.7602,43.79123],[-79.74108,43.77713]]]}},{"type":"Feature","properties":{"CTUID":"5350576.68","MR_q":3,"HD_q":1,"pop2021":4910},"geometry":{"type":"Polygon","coordinates":[[[-79.74094,43.78437],[-79.7358,43.78333],[-79.73612,43.78093],[-79.7347,43.77986],[-79.73274,43.78147],[-79.73127,43.78],[-79.72883,43.78012],[-79.72891,43.77606],[-79.73533,43.7729],[-79.74905,43.78303],[-79.74711,43.78466],[-79.74094,43.78437]]]}},{"type":"Feature","properties":{"CTUID":"5350576.69","MR_q":3,"HD_q":1,"pop2021":5710},"geometry":{"type":"Polygon","coordinates":[[[-79.72624,43.77985],[-79.7221,43.77845],[-79.71929,43.77585],[-79.72033,43.77566],[-79.71894,43.77366],[-79.71333,43.77094],[-79.72218,43.76328],[-79.73533,43.7729],[-79.72909,43.7758],[-79.72879,43.78008],[-79.72624,43.77985]]]}},{"type":"Feature","properties":{"CTUID":"5350516.47","MR_q":2,"HD_q":1,"pop2021":5083},"geometry":{"type":"Polygon","coordinates":[[[-79.74366,43.54964],[-79.7359,43.54327],[-79.73969,43.53985],[-79.7411,43.53656],[-79.75486,43.54591],[-79.74671,43.55184],[-79.74366,43.54964]]]}},{"type":"Feature","properties":{"CTUID":"5350575.07","MR_q":3,"HD_q":1,"pop2021":3967},"geometry":{"type":"Polygon","coordinates":[[[-79.75865,43.72079],[-79.7518,43.71569],[-79.75439,43.71425],[-79.75782,43.71416],[-79.75776,43.71551],[-79.76264,43.71571],[-79.76612,43.71812],[-79.76697,43.72073],[-79.76965,43.72176],[-79.76504,43.72571],[-79.75865,43.72079]]]}},{"type":"Feature","properties":{"CTUID":"5350575.08","MR_q":4,"HD_q":2,"pop2021":5669},"geometry":{"type":"Polygon","coordinates":[[[-79.76811,43.7209],[-79.76252,43.71564],[-79.75776,43.71551],[-79.75782,43.71416],[-79.76079,43.71354],[-79.76653,43.70837],[-79.77658,43.71596],[-79.76965,43.72176],[-79.76811,43.7209]]]}},{"type":"Feature","properties":{"CTUID":"5350576.45","MR_q":4,"HD_q":1,"pop2021":2816},"geometry":{"type":"Polygon","coordinates":[[[-79.7458,43.75607],[-79.74687,43.75531],[-79.75442,43.75742],[-79.75175,43.76244],[-79.74864,43.76525],[-79.7436,43.76153],[-79.74618,43.75919],[-79.74399,43.75772],[-79.7458,43.75607]]]}},{"type":"Feature","properties":{"CTUID":"5350576.46","MR_q":3,"HD_q":1,"pop2021":5286},"geometry":{"type":"Polygon","coordinates":[[[-79.73927,43.74942],[-79.74687,43.75531],[-79.74399,43.75772],[-79.74618,43.75919],[-79.7436,43.76153],[-79.73389,43.75435],[-79.73927,43.74942]]]}},{"type":"Feature","properties":{"CTUID":"5350576.47","MR_q":3,"HD_q":1,"pop2021":4274},"geometry":{"type":"Polygon","coordinates":[[[-79.72578,43.7837],[-79.71109,43.77289],[-79.71333,43.77094],[-79.71894,43.77366],[-79.72033,43.77566],[-79.71929,43.77585],[-79.72275,43.77879],[-79.72647,43.78016],[-79.73127,43.78],[-79.7325,43.78145],[-79.7347,43.77986],[-79.73612,43.78093],[-79.7358,43.78333],[-79.74198,43.78488],[-79.74711,43.78466],[-79.73791,43.79259],[-79.72578,43.7837]]]}},{"type":"Feature","properties":{"CTUID":"5350576.49","MR_q":3,"HD_q":1,"pop2021":5144},"geometry":{"type":"Polygon","coordinates":[[[-79.82867,43.70204],[-79.83531,43.70613],[-79.82447,43.7158],[-79.8215,43.71359],[-79.82398,43.71015],[-79.82391,43.70785],[-79.82867,43.70204]]]}},{"type":"Feature","properties":{"CTUID":"5350576.50","MR_q":3,"HD_q":1,"pop2021":6726},"geometry":{"type":"Polygon","coordinates":[[[-79.82263,43.69696],[-79.82918,43.70156],[-79.82391,43.70785],[-79.82398,43.71015],[-79.8215,43.71359],[-79.81192,43.70656],[-79.82263,43.69696]]]}},{"type":"Feature","properties":{"CTUID":"5350500.01","MR_q":4,"HD_q":5,"pop2021":3678},"geometry":{"type":"Polygon","coordinates":[[[-79.56237,43.56617],[-79.5635,43.56474],[-79.5605,43.56296],[-79.56217,43.56179],[-79.5651,43.56472],[-79.56436,43.56406],[-79.56846,43.56127],[-79.57844,43.56391],[-79.56951,43.57205],[-79.56237,43.56617]]]}},{"type":"Feature","properties":{"CTUID":"5350500.02","MR_q":5,"HD_q":4,"pop2021":4780},"geometry":{"type":"Polygon","coordinates":[[[-79.54387,43.5746],[-79.54491,43.5739],[-79.54652,43.57466],[-79.54592,43.57185],[-79.54084,43.5686],[-79.54629,43.57188],[-79.54837,43.57199],[-79.552,43.56976],[-79.54694,43.57171],[-79.54195,43.56784],[-79.54796,43.57138],[-79.55302,43.56821],[-79.55567,43.56302],[-79.55342,43.56815],[-79.55471,43.56936],[-79.55428,43.57139],[-79.55633,43.56786],[-79.55906,43.56844],[-79.55717,43.56736],[-79.55806,43.56376],[-79.55596,43.56373],[-79.55798,43.56237],[-79.55975,43.56316],[-79.55963,43.56442],[-79.56186,43.5651],[-79.56048,43.56723],[-79.56279,43.5663],[-79.56951,43.57205],[-79.5486,43.59018],[-79.54643,43.58888],[-79.54785,43.58731],[-79.54446,43.58545],[-79.54328,43.57969],[-79.54425,43.57807],[-79.54262,43.57503],[-79.54387,43.5746]]]}},{"type":"Feature","properties":{"CTUID":"5350501.01","MR_q":2,"HD_q":4,"pop2021":5718},"geometry":{"type":"Polygon","coordinates":[[[-79.61917,43.51775],[-79.61679,43.51601],[-79.61297,43.51527],[-79.60805,43.51102],[-79.60428,43.50997],[-79.60493,43.50876],[-79.60217,43.50656],[-79.60642,43.49655],[-79.6026,43.49277],[-79.60661,43.49651],[-79.61248,43.49411],[-79.61429,43.49262],[-79.61567,43.48891],[-79.60962,43.48385],[-79.61603,43.48795],[-79.62509,43.48113],[-79.64764,43.49793],[-79.64027,43.50702],[-79.62666,43.51964],[-79.62317,43.51729],[-79.62108,43.51915],[-79.61917,43.51775]]]}},{"type":"Feature","properties":{"CTUID":"5350501.02","MR_q":1,"HD_q":3,"pop2021":7122},"geometry":{"type":"Polygon","coordinates":[[[-79.59294,43.53975],[-79.59796,43.53644],[-79.60132,43.52853],[-79.60229,43.5228],[-79.60112,43.50981],[-79.60217,43.50656],[-79.60493,43.50876],[-79.60428,43.50997],[-79.6083,43.51116],[-79.61297,43.51527],[-79.61679,43.51601],[-79.62108,43.51915],[-79.62317,43.51729],[-79.62666,43.51964],[-79.60309,43.54128],[-79.59294,43.53975]]]}},{"type":"Feature","properties":{"CTUID":"5350502.01","MR_q":3,"HD_q":3,"pop2021":5645},"geometry":{"type":"Polygon","coordinates":[[[-79.63894,43.50832],[-79.64764,43.49793],[-79.65788,43.50538],[-79.65554,43.50748],[-79.64937,43.51004],[-79.64559,43.50755],[-79.64328,43.50969],[-79.64224,43.50878],[-79.63989,43.50925],[-79.63674,43.51389],[-79.63471,43.51478],[-79.6332,43.51361],[-79.63894,43.50832]]]}},{"type":"Feature","properties":{"CTUID":"5350502.02","MR_q":3,"HD_q":3,"pop2021":2533},"geometry":{"type":"Polygon","coordinates":[[[-79.63616,43.51572],[-79.63471,43.51478],[-79.63674,43.51389],[-79.63989,43.50925],[-79.64224,43.50878],[-79.64328,43.50969],[-79.64559,43.50755],[-79.64937,43.51004],[-79.64095,43.51919],[-79.63616,43.51572]]]}},{"type":"Feature","properties":{"CTUID":"5350505.01","MR_q":1,"HD_q":1,"pop2021":4476},"geometry":{"type":"Polygon","coordinates":[[[-79.6208,43.54586],[-79.61828,43.54513],[-79.62512,43.53377],[-79.61711,43.52842],[-79.62666,43.51964],[-79.64129,43.5302],[-79.62264,43.54711],[-79.6208,43.54586]]]}},{"type":"Feature","properties":{"CTUID":"5350505.02","MR_q":1,"HD_q":1,"pop2021":5664},"geometry":{"type":"Polygon","coordinates":[[[-79.60571,43.55512],[-79.6013,43.55509],[-79.59713,43.55272],[-79.59183,43.55159],[-79.61772,43.5286],[-79.62512,43.53377],[-79.61828,43.54513],[-79.62264,43.54711],[-79.61338,43.55246],[-79.60962,43.55694],[-79.60571,43.55512]]]}},{"type":"Feature","properties":{"CTUID":"5350509.01","MR_q":2,"HD_q":3,"pop2021":5122},"geometry":{"type":"Polygon","coordinates":[[[-79.57026,43.5874],[-79.55929,43.58143],[-79.56951,43.57205],[-79.57997,43.57945],[-79.58303,43.58353],[-79.57493,43.59068],[-79.57026,43.5874]]]}},{"type":"Feature","properties":{"CTUID":"5350509.02","MR_q":1,"HD_q":3,"pop2021":3418},"geometry":{"type":"Polygon","coordinates":[[[-79.55487,43.5993],[-79.55363,43.59845],[-79.55344,43.59557],[-79.54869,43.59488],[-79.54962,43.59213],[-79.5486,43.59018],[-79.55929,43.58143],[-79.56583,43.58429],[-79.57493,43.59068],[-79.57832,43.58784],[-79.5598,43.60502],[-79.55637,43.60263],[-79.55583,43.59972],[-79.55487,43.5993]]]}},{"type":"Feature","properties":{"CTUID":"5350511.01","MR_q":5,"HD_q":5,"pop2021":6086},"geometry":{"type":"Polygon","coordinates":[[[-79.59955,43.56838],[-79.6075,43.57404],[-79.60345,43.57761],[-79.59548,43.57211],[-79.59955,43.56838]]]}},{"type":"Feature","properties":{"CTUID":"5350511.02","MR_q":4,"HD_q":3,"pop2021":4795},"geometry":{"type":"Polygon","coordinates":[[[-79.58726,43.58578],[-79.58303,43.58353],[-79.59548,43.57211],[-79.60345,43.57761],[-79.59116,43.58851],[-79.58726,43.58578]]]}},{"type":"Feature","properties":{"CTUID":"5350513.01","MR_q":2,"HD_q":2,"pop2021":6781},"geometry":{"type":"Polygon","coordinates":[[[-79.62133,43.56025],[-79.60867,43.55822],[-79.61001,43.55641],[-79.62609,43.55271],[-79.62865,43.55137],[-79.63009,43.54824],[-79.64121,43.55058],[-79.64251,43.54922],[-79.64065,43.54653],[-79.64729,43.54656],[-79.64858,43.5445],[-79.64797,43.54268],[-79.65031,43.53946],[-79.65322,43.54245],[-79.65804,43.54323],[-79.65142,43.54718],[-79.64802,43.5529],[-79.63288,43.56597],[-79.62133,43.56025]]]}},{"type":"Feature","properties":{"CTUID":"5350513.02","MR_q":5,"HD_q":4,"pop2021":6215},"geometry":{"type":"Polygon","coordinates":[[[-79.61449,43.56784],[-79.61748,43.56518],[-79.62642,43.57164],[-79.61644,43.58027],[-79.61012,43.57581],[-79.6147,43.57301],[-79.61118,43.57089],[-79.61449,43.56784]]]}},{"type":"Feature","properties":{"CTUID":"5350513.03","MR_q":4,"HD_q":4,"pop2021":3297},"geometry":{"type":"Polygon","coordinates":[[[-79.60419,43.56403],[-79.61345,43.56393],[-79.61748,43.56518],[-79.61118,43.57089],[-79.6147,43.57301],[-79.61012,43.57581],[-79.60205,43.57022],[-79.59984,43.56811],[-79.60419,43.56403]]]}},{"type":"Feature","properties":{"CTUID":"5350516.01","MR_q":2,"HD_q":2,"pop2021":5393},"geometry":{"type":"Polygon","coordinates":[[[-79.74688,43.56648],[-79.74932,43.56439],[-79.76959,43.57899],[-79.76351,43.5828],[-79.74417,43.56872],[-79.74688,43.56648]]]}},{"type":"Feature","properties":{"CTUID":"5350516.02","MR_q":2,"HD_q":1,"pop2021":4749},"geometry":{"type":"Polygon","coordinates":[[[-79.76814,43.59086],[-79.77106,43.58821],[-79.78815,43.6005],[-79.76607,43.60216],[-79.76126,43.59723],[-79.76814,43.59086]]]}},{"type":"Feature","properties":{"CTUID":"5350516.03","MR_q":3,"HD_q":3,"pop2021":5630},"geometry":{"type":"Polygon","coordinates":[[[-79.75777,43.59551],[-79.75612,43.59531],[-79.75627,43.58905],[-79.76351,43.5828],[-79.77106,43.58821],[-79.76126,43.59723],[-79.75777,43.59551]]]}},{"type":"Feature","properties":{"CTUID":"5350516.04","MR_q":4,"HD_q":5,"pop2021":6257},"geometry":{"type":"Polygon","coordinates":[[[-79.75677,43.58051],[-79.75857,43.57922],[-79.76351,43.5828],[-79.75668,43.58826],[-79.75612,43.59531],[-79.74287,43.5857],[-79.75164,43.58411],[-79.75677,43.58051]]]}},{"type":"Feature","properties":{"CTUID":"5350516.05","MR_q":3,"HD_q":3,"pop2021":6210},"geometry":{"type":"Polygon","coordinates":[[[-79.74217,43.57052],[-79.74417,43.56872],[-79.75857,43.57922],[-79.75377,43.58273],[-79.74039,43.57703],[-79.73771,43.57456],[-79.74217,43.57052]]]}},{"type":"Feature","properties":{"CTUID":"5350516.06","MR_q":3,"HD_q":3,"pop2021":4784},"geometry":{"type":"Polygon","coordinates":[[[-79.73573,43.57636],[-79.73771,43.57456],[-79.74039,43.57703],[-79.75377,43.58273],[-79.75053,43.58444],[-79.74216,43.58575],[-79.73326,43.57861],[-79.73573,43.57636]]]}},{"type":"Feature","properties":{"CTUID":"5350516.08","MR_q":5,"HD_q":4,"pop2021":6218},"geometry":{"type":"Polygon","coordinates":[[[-79.69142,43.53213],[-79.69274,43.53083],[-79.70009,43.53631],[-79.69362,43.54197],[-79.68317,43.54648],[-79.67974,43.54412],[-79.68126,43.5428],[-79.68243,43.53804],[-79.68701,43.53614],[-79.69142,43.53213]]]}},{"type":"Feature","properties":{"CTUID":"5350516.09","MR_q":3,"HD_q":3,"pop2021":6899},"geometry":{"type":"Polygon","coordinates":[[[-79.6817,43.52288],[-79.69274,43.53083],[-79.68701,43.53614],[-79.68243,43.53804],[-79.68126,43.5428],[-79.67974,43.54412],[-79.66615,43.53688],[-79.6817,43.52288]]]}},{"type":"Feature","properties":{"CTUID":"5350520.01","MR_q":5,"HD_q":2,"pop2021":5179},"geometry":{"type":"Polygon","coordinates":[[[-79.63929,43.56044],[-79.64281,43.55741],[-79.66135,43.57076],[-79.6516,43.57942],[-79.63288,43.56597],[-79.63929,43.56044]]]}},{"type":"Feature","properties":{"CTUID":"5350520.02","MR_q":4,"HD_q":4,"pop2021":7509},"geometry":{"type":"Polygon","coordinates":[[[-79.64244,43.58408],[-79.63778,43.58407],[-79.63366,43.58174],[-79.62694,43.58067],[-79.64004,43.57102],[-79.6516,43.57942],[-79.64499,43.58529],[-79.64244,43.58408]]]}},{"type":"Feature","properties":{"CTUID":"5350521.01","MR_q":3,"HD_q":5,"pop2021":5504},"geometry":{"type":"Polygon","coordinates":[[[-79.62835,43.58981],[-79.62906,43.5893],[-79.63503,43.59376],[-79.63292,43.59545],[-79.63007,43.59429],[-79.62984,43.59313],[-79.62629,43.59112],[-79.62835,43.58981]]]}},{"type":"Feature","properties":{"CTUID":"5350521.02","MR_q":3,"HD_q":2,"pop2021":3404},"geometry":{"type":"Polygon","coordinates":[[[-79.62103,43.59689],[-79.62615,43.60121],[-79.61865,43.60789],[-79.60943,43.60126],[-79.61457,43.59832],[-79.62103,43.59689]]]}},{"type":"Feature","properties":{"CTUID":"5350521.03","MR_q":4,"HD_q":3,"pop2021":4787},"geometry":{"type":"Polygon","coordinates":[[[-79.6218,43.59369],[-79.61387,43.59111],[-79.61312,43.58961],[-79.61787,43.58797],[-79.62226,43.58459],[-79.62906,43.5893],[-79.6218,43.59369]]]}},{"type":"Feature","properties":{"CTUID":"5350521.04","MR_q":4,"HD_q":3,"pop2021":6542},"geometry":{"type":"Polygon","coordinates":[[[-79.60303,43.59185],[-79.61312,43.58961],[-79.61387,43.59111],[-79.6208,43.59302],[-79.62102,43.59695],[-79.61457,43.59832],[-79.60943,43.60126],[-79.6,43.59467],[-79.60303,43.59185]]]}},{"type":"Feature","properties":{"CTUID":"5350521.05","MR_q":5,"HD_q":4,"pop2021":4248},"geometry":{"type":"Polygon","coordinates":[[[-79.6035,43.59169],[-79.61644,43.58027],[-79.62226,43.58459],[-79.61583,43.58888],[-79.6035,43.59169]]]}},{"type":"Feature","properties":{"CTUID":"5350524.01","MR_q":4,"HD_q":3,"pop2021":4658},"geometry":{"type":"Polygon","coordinates":[[[-79.59451,43.61011],[-79.58985,43.60945],[-79.58658,43.60694],[-79.59354,43.60057],[-79.60338,43.60737],[-79.60054,43.61039],[-79.5968,43.60884],[-79.59451,43.61011]]]}},{"type":"Feature","properties":{"CTUID":"5350524.02","MR_q":4,"HD_q":5,"pop2021":3569},"geometry":{"type":"Polygon","coordinates":[[[-79.58426,43.609],[-79.58658,43.60694],[-79.59013,43.60954],[-79.59506,43.61047],[-79.5968,43.60884],[-79.60054,43.61039],[-79.59458,43.61678],[-79.58426,43.609]]]}},{"type":"Feature","properties":{"CTUID":"5350525.01","MR_q":5,"HD_q":4,"pop2021":3274},"geometry":{"type":"Polygon","coordinates":[[[-79.58854,43.6132],[-79.59458,43.61678],[-79.58768,43.62317],[-79.584,43.6194],[-79.58535,43.61628],[-79.58854,43.6132]]]}},{"type":"Feature","properties":{"CTUID":"5350525.02","MR_q":5,"HD_q":4,"pop2021":4207},"geometry":{"type":"Polygon","coordinates":[[[-79.56464,43.6281],[-79.56381,43.62701],[-79.56655,43.62558],[-79.58382,43.60939],[-79.58893,43.61284],[-79.58535,43.61628],[-79.584,43.6194],[-79.58768,43.62317],[-79.58162,43.62801],[-79.57503,43.62539],[-79.56464,43.6281]]]}},{"type":"Feature","properties":{"CTUID":"5350526.01","MR_q":5,"HD_q":4,"pop2021":5810},"geometry":{"type":"Polygon","coordinates":[[[-79.59422,43.61711],[-79.60256,43.62255],[-79.59608,43.62844],[-79.59193,43.62493],[-79.58768,43.62317],[-79.59422,43.61711]]]}},{"type":"Feature","properties":{"CTUID":"5350526.02","MR_q":5,"HD_q":4,"pop2021":3502},"geometry":{"type":"Polygon","coordinates":[[[-79.58561,43.63314],[-79.58581,43.62913],[-79.58182,43.62787],[-79.58768,43.62317],[-79.59193,43.62493],[-79.59608,43.62844],[-79.5858,43.63781],[-79.58561,43.63314]]]}},{"type":"Feature","properties":{"CTUID":"5350527.02","MR_q":3,"HD_q":3,"pop2021":4904},"geometry":{"type":"Polygon","coordinates":[[[-79.60223,43.62284],[-79.61411,43.63106],[-79.60668,43.63694],[-79.59948,43.63237],[-79.59608,43.62844],[-79.60223,43.62284]]]}},{"type":"Feature","properties":{"CTUID":"5350529.01","MR_q":4,"HD_q":4,"pop2021":4097},"geometry":{"type":"Polygon","coordinates":[[[-79.6349,43.71087],[-79.64722,43.69949],[-79.6523,43.70328],[-79.64753,43.70747],[-79.65033,43.70971],[-79.64744,43.71289],[-79.64385,43.71089],[-79.64177,43.71275],[-79.63989,43.71151],[-79.63619,43.71197],[-79.6349,43.71087]]]}},{"type":"Feature","properties":{"CTUID":"5350529.02","MR_q":5,"HD_q":3,"pop2021":4675},"geometry":{"type":"Polygon","coordinates":[[[-79.63351,43.71192],[-79.63477,43.71076],[-79.63619,43.71197],[-79.63989,43.71151],[-79.64177,43.71275],[-79.64385,43.71089],[-79.64744,43.71289],[-79.64483,43.7183],[-79.6419,43.72109],[-79.63165,43.71356],[-79.63351,43.71192]]]}},{"type":"Feature","properties":{"CTUID":"5350531.01","MR_q":5,"HD_q":4,"pop2021":4106},"geometry":{"type":"Polygon","coordinates":[[[-79.63978,43.72979],[-79.63823,43.72851],[-79.63944,43.72701],[-79.63753,43.72431],[-79.63964,43.72375],[-79.6419,43.72109],[-79.65039,43.72741],[-79.64624,43.73114],[-79.64444,43.73025],[-79.64266,43.732],[-79.63978,43.72979]]]}},{"type":"Feature","properties":{"CTUID":"5350531.02","MR_q":5,"HD_q":2,"pop2021":6405},"geometry":{"type":"Polygon","coordinates":[[[-79.62835,43.73289],[-79.62399,43.72565],[-79.62574,43.72511],[-79.63015,43.72564],[-79.63753,43.72431],[-79.63944,43.72701],[-79.63823,43.72851],[-79.64159,43.73124],[-79.64266,43.732],[-79.64444,43.73025],[-79.64624,43.73114],[-79.63936,43.73733],[-79.63451,43.73374],[-79.63031,43.73544],[-79.63047,43.7364],[-79.62835,43.73289]]]}},{"type":"Feature","properties":{"CTUID":"5350532.01","MR_q":4,"HD_q":3,"pop2021":4319},"geometry":{"type":"Polygon","coordinates":[[[-79.65651,43.72172],[-79.6527,43.72104],[-79.65258,43.71983],[-79.64589,43.71612],[-79.64804,43.71162],[-79.65033,43.70971],[-79.66109,43.71776],[-79.65651,43.72172]]]}},{"type":"Feature","properties":{"CTUID":"5350532.02","MR_q":5,"HD_q":3,"pop2021":4508},"geometry":{"type":"Polygon","coordinates":[[[-79.64311,43.71994],[-79.64589,43.71612],[-79.65258,43.71983],[-79.6527,43.72104],[-79.65662,43.72176],[-79.65039,43.72741],[-79.6419,43.72109],[-79.64311,43.71994]]]}},{"type":"Feature","properties":{"CTUID":"5350540.01","MR_q":4,"HD_q":5,"pop2021":4850},"geometry":{"type":"Polygon","coordinates":[[[-79.58019,43.55031],[-79.57926,43.5499],[-79.58108,43.54939],[-79.5803,43.5484],[-79.57647,43.5481],[-79.58047,43.54821],[-79.58366,43.54445],[-79.58247,43.54331],[-79.58501,43.54482],[-79.58504,43.54297],[-79.59023,43.53942],[-79.60309,43.54128],[-79.58762,43.55503],[-79.58019,43.55031]]]}},{"type":"Feature","properties":{"CTUID":"5350540.02","MR_q":3,"HD_q":5,"pop2021":5658},"geometry":{"type":"Polygon","coordinates":[[[-79.57383,43.56271],[-79.56846,43.56127],[-79.56711,43.56205],[-79.57192,43.55696],[-79.58081,43.55314],[-79.57618,43.5495],[-79.58762,43.55503],[-79.58976,43.55352],[-79.57844,43.56391],[-79.57383,43.56271]]]}},{"type":"Feature","properties":{"CTUID":"5350550.01","MR_q":2,"HD_q":2,"pop2021":4672},"geometry":{"type":"Polygon","coordinates":[[[-79.72168,43.6073],[-79.71575,43.60983],[-79.71241,43.60766],[-79.71508,43.60473],[-79.71815,43.60352],[-79.71852,43.60085],[-79.72488,43.6003],[-79.72298,43.59634],[-79.71795,43.59455],[-79.71753,43.59264],[-79.73326,43.57861],[-79.75612,43.59531],[-79.76126,43.59723],[-79.76607,43.60216],[-79.7521,43.60356],[-79.7288,43.61253],[-79.72781,43.61078],[-79.72168,43.6073]]]}},{"type":"Feature","properties":{"CTUID":"5350550.02","MR_q":3,"HD_q":3,"pop2021":7557},"geometry":{"type":"Polygon","coordinates":[[[-79.71241,43.58413],[-79.7086,43.58349],[-79.70826,43.58064],[-79.7048,43.57906],[-79.70381,43.57726],[-79.70004,43.57808],[-79.69844,43.57609],[-79.7032,43.57474],[-79.70648,43.57506],[-79.71222,43.57127],[-79.71732,43.57541],[-79.72258,43.56993],[-79.73326,43.57861],[-79.71753,43.59264],[-79.71737,43.59122],[-79.71528,43.58993],[-79.7168,43.58712],[-79.71241,43.58413]]]}},{"type":"Feature","properties":{"CTUID":"5350562.02","MR_q":3,"HD_q":2,"pop2021":6521},"geometry":{"type":"Polygon","coordinates":[[[-79.72961,43.716],[-79.72794,43.71486],[-79.73811,43.70563],[-79.7518,43.71569],[-79.74211,43.72535],[-79.72961,43.716]]]}},{"type":"Feature","properties":{"CTUID":"5350562.03","MR_q":4,"HD_q":3,"pop2021":5071},"geometry":{"type":"Polygon","coordinates":[[[-79.74746,43.73046],[-79.74824,43.72992],[-79.75481,43.73474],[-79.74419,43.74438],[-79.73713,43.73919],[-79.74746,43.73046]]]}},{"type":"Feature","properties":{"CTUID":"5350562.04","MR_q":4,"HD_q":2,"pop2021":4830},"geometry":{"type":"Polygon","coordinates":[[[-79.73969,43.72708],[-79.74211,43.72535],[-79.74824,43.72992],[-79.73713,43.73919],[-79.73013,43.73395],[-79.73969,43.72708]]]}},{"type":"Feature","properties":{"CTUID":"5350562.05","MR_q":4,"HD_q":4,"pop2021":5930},"geometry":{"type":"Polygon","coordinates":[[[-79.72155,43.72756],[-79.71742,43.72448],[-79.72794,43.71486],[-79.73398,43.71929],[-79.7298,43.72317],[-79.72682,43.72446],[-79.72764,43.72694],[-79.72983,43.72834],[-79.73582,43.72949],[-79.73013,43.73395],[-79.72155,43.72756]]]}},{"type":"Feature","properties":{"CTUID":"5350562.06","MR_q":3,"HD_q":2,"pop2021":3056},"geometry":{"type":"Polygon","coordinates":[[[-79.73571,43.74023],[-79.73713,43.73919],[-79.74419,43.74438],[-79.73389,43.75435],[-79.72677,43.74906],[-79.73571,43.74023]]]}},{"type":"Feature","properties":{"CTUID":"5350562.07","MR_q":4,"HD_q":2,"pop2021":4600},"geometry":{"type":"Polygon","coordinates":[[[-79.72769,43.73608],[-79.73013,43.73395],[-79.73713,43.73919],[-79.72677,43.74906],[-79.72021,43.74416],[-79.72769,43.73608]]]}},{"type":"Feature","properties":{"CTUID":"5350562.08","MR_q":4,"HD_q":2,"pop2021":4201},"geometry":{"type":"Polygon","coordinates":[[[-79.72397,43.73022],[-79.73013,43.73395],[-79.72021,43.74416],[-79.71275,43.73855],[-79.71611,43.73496],[-79.72397,43.73022]]]}},{"type":"Feature","properties":{"CTUID":"5350562.09","MR_q":4,"HD_q":2,"pop2021":4023},"geometry":{"type":"Polygon","coordinates":[[[-79.71696,43.7249],[-79.72451,43.72976],[-79.71611,43.73496],[-79.71275,43.73855],[-79.70667,43.73405],[-79.71696,43.7249]]]}},{"type":"Feature","properties":{"CTUID":"5350563.01","MR_q":5,"HD_q":5,"pop2021":6622},"geometry":{"type":"Polygon","coordinates":[[[-79.71805,43.71568],[-79.72252,43.71078],[-79.72794,43.71486],[-79.71742,43.72448],[-79.71122,43.71981],[-79.71805,43.71568]]]}},{"type":"Feature","properties":{"CTUID":"5350563.02","MR_q":4,"HD_q":3,"pop2021":3396},"geometry":{"type":"Polygon","coordinates":[[[-79.70765,43.71408],[-79.71611,43.70587],[-79.72252,43.71078],[-79.7186,43.71568],[-79.71122,43.71981],[-79.70536,43.71542],[-79.70765,43.71408]]]}},{"type":"Feature","properties":{"CTUID":"5350570.01","MR_q":5,"HD_q":5,"pop2021":4012},"geometry":{"type":"Polygon","coordinates":[[[-79.70539,43.68111],[-79.69023,43.66962],[-79.70117,43.66021],[-79.72261,43.67561],[-79.7252,43.67324],[-79.7267,43.67413],[-79.72721,43.67673],[-79.73574,43.68224],[-79.73446,43.68445],[-79.74949,43.69563],[-79.73811,43.70563],[-79.70539,43.68111]]]}},{"type":"Feature","properties":{"CTUID":"5350570.02","MR_q":2,"HD_q":2,"pop2021":4200},"geometry":{"type":"Polygon","coordinates":[[[-79.73297,43.66613],[-79.74042,43.67129],[-79.73822,43.67377],[-79.7416,43.67617],[-79.73574,43.68224],[-79.72721,43.67673],[-79.7267,43.67413],[-79.7252,43.67324],[-79.73297,43.66613]]]}},{"type":"Feature","properties":{"CTUID":"5350571.01","MR_q":5,"HD_q":4,"pop2021":3838},"geometry":{"type":"Polygon","coordinates":[[[-79.74295,43.68849],[-79.7496,43.6826],[-79.74955,43.68578],[-79.75543,43.69005],[-79.74949,43.69563],[-79.74148,43.68978],[-79.74295,43.68849]]]}},{"type":"Feature","properties":{"CTUID":"5350571.02","MR_q":4,"HD_q":3,"pop2021":4308},"geometry":{"type":"Polygon","coordinates":[[[-79.74012,43.67154],[-79.75235,43.68028],[-79.74148,43.68978],[-79.73446,43.68445],[-79.74155,43.67666],[-79.73822,43.67377],[-79.74012,43.67154]]]}},{"type":"Feature","properties":{"CTUID":"5350575.01","MR_q":5,"HD_q":3,"pop2021":5985},"geometry":{"type":"Polygon","coordinates":[[[-79.7675,43.69473],[-79.7694,43.69295],[-79.77731,43.69878],[-79.76653,43.70837],[-79.7588,43.70263],[-79.7675,43.69473]]]}},{"type":"Feature","properties":{"CTUID":"5350575.02","MR_q":5,"HD_q":5,"pop2021":4910},"geometry":{"type":"Polygon","coordinates":[[[-79.75161,43.69372],[-79.75543,43.69005],[-79.76151,43.69233],[-79.76286,43.69418],[-79.76713,43.69507],[-79.7588,43.70263],[-79.74949,43.69563],[-79.75161,43.69372]]]}},{"type":"Feature","properties":{"CTUID":"5350575.03","MR_q":4,"HD_q":3,"pop2021":6598},"geometry":{"type":"Polygon","coordinates":[[[-79.75712,43.70421],[-79.7588,43.70263],[-79.76653,43.70837],[-79.76118,43.71326],[-79.75439,43.71425],[-79.7518,43.71569],[-79.74756,43.71258],[-79.75712,43.70421]]]}},{"type":"Feature","properties":{"CTUID":"5350575.04","MR_q":4,"HD_q":3,"pop2021":6562},"geometry":{"type":"Polygon","coordinates":[[[-79.74869,43.69633],[-79.74949,43.69563],[-79.7588,43.70263],[-79.74756,43.71258],[-79.73811,43.70563],[-79.74869,43.69633]]]}},{"type":"Feature","properties":{"CTUID":"5350585.02","MR_q":2,"HD_q":1,"pop2021":6275},"geometry":{"type":"Polygon","coordinates":[[[-79.73238,43.90342],[-79.73451,43.90353],[-79.74124,43.89695],[-79.75056,43.8947],[-79.75459,43.89146],[-79.74902,43.88746],[-79.75902,43.87769],[-79.75661,43.87587],[-79.75722,43.87534],[-79.75104,43.87227],[-79.70565,43.83897],[-79.7602,43.79123],[-79.84049,43.85038],[-79.83636,43.8537],[-79.83368,43.85438],[-79.81438,43.87244],[-79.81304,43.87516],[-79.79689,43.8883],[-79.79313,43.89269],[-79.7923,43.89568],[-79.78378,43.90343],[-79.78089,43.90286],[-79.77216,43.91065],[-79.7712,43.91376],[-79.75162,43.93143],[-79.74626,43.93768],[-79.72872,43.90665],[-79.73238,43.90342]]]}},{"type":"Feature","properties":{"CTUID":"5350585.03","MR_q":2,"HD_q":2,"pop2021":5493},"geometry":{"type":"Polygon","coordinates":[[[-79.72962,43.87343],[-79.69522,43.84772],[-79.69723,43.84736],[-79.70565,43.83897],[-79.75104,43.87227],[-79.75722,43.87534],[-79.75661,43.87587],[-79.75902,43.87769],[-79.74902,43.88746],[-79.72962,43.87343]]]}},{"type":"Feature","properties":{"CTUID":"5350513.04","MR_q":3,"HD_q":2,"pop2021":3662},"geometry":{"type":"Polygon","coordinates":[[[-79.61367,43.56396],[-79.61067,43.56462],[-79.60469,43.56353],[-79.60867,43.55822],[-79.62165,43.56034],[-79.63288,43.56597],[-79.62642,43.57164],[-79.61764,43.56528],[-79.61367,43.56396]]]}},{"type":"Feature","properties":{"CTUID":"5350515.01","MR_q":2,"HD_q":2,"pop2021":4185},"geometry":{"type":"Polygon","coordinates":[[[-79.67242,43.53043],[-79.66901,43.52846],[-79.6655,43.52888],[-79.66359,43.52737],[-79.66407,43.52584],[-79.65219,43.52022],[-79.66367,43.50974],[-79.68183,43.52278],[-79.67242,43.53043]]]}},{"type":"Feature","properties":{"CTUID":"5350515.02","MR_q":3,"HD_q":3,"pop2021":3771},"geometry":{"type":"Polygon","coordinates":[[[-79.65701,43.53048],[-79.64776,43.5243],[-79.65219,43.52022],[-79.66407,43.52584],[-79.66359,43.52737],[-79.6655,43.52888],[-79.66901,43.52846],[-79.67293,43.53079],[-79.66615,43.53688],[-79.65701,43.53048]]]}},{"type":"Feature","properties":{"CTUID":"5350516.11","MR_q":1,"HD_q":1,"pop2021":4699},"geometry":{"type":"Polygon","coordinates":[[[-79.67759,43.56174],[-79.67425,43.56197],[-79.67272,43.5608],[-79.67477,43.55861],[-79.67469,43.55497],[-79.67758,43.54907],[-79.68317,43.54648],[-79.69811,43.55489],[-79.68737,43.56228],[-79.6848,43.56294],[-79.68341,43.56148],[-79.67969,43.56281],[-79.67759,43.56174]]]}},{"type":"Feature","properties":{"CTUID":"5350527.04","MR_q":2,"HD_q":3,"pop2021":5615},"geometry":{"type":"Polygon","coordinates":[[[-79.59211,43.64462],[-79.58833,43.64242],[-79.5858,43.63781],[-79.59608,43.62844],[-79.59948,43.63237],[-79.60668,43.63694],[-79.60047,43.64379],[-79.59629,43.64301],[-79.59211,43.64462]]]}},{"type":"Feature","properties":{"CTUID":"5350572.01","MR_q":4,"HD_q":4,"pop2021":7707},"geometry":{"type":"Polygon","coordinates":[[[-79.74502,43.67473],[-79.74346,43.67355],[-79.7542,43.66403],[-79.77065,43.6761],[-79.76538,43.68098],[-79.75915,43.67633],[-79.75371,43.68128],[-79.74502,43.67473]]]}},{"type":"Feature","properties":{"CTUID":"5350575.05","MR_q":4,"HD_q":2,"pop2021":6956},"geometry":{"type":"Polygon","coordinates":[[[-79.77629,43.69958],[-79.77731,43.69878],[-79.78669,43.70584],[-79.77658,43.71596],[-79.76653,43.70837],[-79.77629,43.69958]]]}},{"type":"Feature","properties":{"CTUID":"5350576.04","MR_q":2,"HD_q":1,"pop2021":4529},"geometry":{"type":"Polygon","coordinates":[[[-79.79238,43.72875],[-79.79327,43.72816],[-79.81443,43.74365],[-79.80324,43.75283],[-79.78074,43.73632],[-79.79238,43.72875]]]}},{"type":"Feature","properties":{"CTUID":"5350576.05","MR_q":3,"HD_q":1,"pop2021":6834},"geometry":{"type":"Polygon","coordinates":[[[-79.78393,43.72127],[-79.77658,43.71596],[-79.78211,43.71042],[-79.78419,43.71009],[-79.78944,43.71477],[-79.79267,43.71593],[-79.79306,43.71774],[-79.79617,43.71851],[-79.79502,43.71982],[-79.79503,43.72224],[-79.79723,43.72346],[-79.79327,43.72816],[-79.78393,43.72127]]]}},{"type":"Feature","properties":{"CTUID":"5350527.05","MR_q":3,"HD_q":3,"pop2021":5369},"geometry":{"type":"Polygon","coordinates":[[[-79.61177,43.61411],[-79.6238,43.62228],[-79.61411,43.63106],[-79.60256,43.62255],[-79.61177,43.61411]]]}},{"type":"Feature","properties":{"CTUID":"5350527.06","MR_q":3,"HD_q":2,"pop2021":3606},"geometry":{"type":"Polygon","coordinates":[[[-79.61819,43.60831],[-79.62966,43.61655],[-79.6238,43.62228],[-79.61206,43.61385],[-79.61819,43.60831]]]}},{"type":"Feature","properties":{"CTUID":"5350527.07","MR_q":4,"HD_q":3,"pop2021":4775},"geometry":{"type":"Polygon","coordinates":[[[-79.62013,43.60657],[-79.62615,43.60121],[-79.63789,43.60876],[-79.62966,43.61655],[-79.61923,43.6086],[-79.61865,43.60789],[-79.62013,43.60657]]]}},{"type":"Feature","properties":{"CTUID":"5350527.08","MR_q":3,"HD_q":1,"pop2021":4069},"geometry":{"type":"Polygon","coordinates":[[[-79.65514,43.57627],[-79.65855,43.57329],[-79.66719,43.57684],[-79.67152,43.57692],[-79.66164,43.58688],[-79.6516,43.57942],[-79.65514,43.57627]]]}},{"type":"Feature","properties":{"CTUID":"5350527.09","MR_q":4,"HD_q":2,"pop2021":3312},"geometry":{"type":"Polygon","coordinates":[[[-79.66719,43.57684],[-79.65855,43.57329],[-79.67272,43.5608],[-79.67386,43.56187],[-79.67736,43.56169],[-79.67969,43.56281],[-79.68341,43.56148],[-79.6848,43.56294],[-79.68737,43.56228],[-79.67568,43.5719],[-79.67152,43.57692],[-79.66719,43.57684]]]}},{"type":"Feature","properties":{"CTUID":"5350521.06","MR_q":4,"HD_q":5,"pop2021":5540},"geometry":{"type":"Polygon","coordinates":[[[-79.6213,43.59375],[-79.62629,43.59112],[-79.63292,43.59545],[-79.62615,43.60121],[-79.62124,43.59732],[-79.6213,43.59375]]]}},{"type":"Feature","properties":{"CTUID":"5350516.16","MR_q":3,"HD_q":3,"pop2021":5132},"geometry":{"type":"Polygon","coordinates":[[[-79.66759,43.55572],[-79.6639,43.55596],[-79.65501,43.54897],[-79.65814,43.54489],[-79.65804,43.54323],[-79.66615,43.53688],[-79.68317,43.54648],[-79.67733,43.54933],[-79.67444,43.55569],[-79.67477,43.55861],[-79.67272,43.5608],[-79.66759,43.55572]]]}},{"type":"Feature","properties":{"CTUID":"5350528.01","MR_q":3,"HD_q":2,"pop2021":5534},"geometry":{"type":"Polygon","coordinates":[[[-79.67152,43.57692],[-79.68326,43.56541],[-79.68797,43.56692],[-79.69045,43.56657],[-79.69093,43.56871],[-79.69346,43.57046],[-79.68515,43.57785],[-79.68349,43.57663],[-79.67152,43.57692]]]}},{"type":"Feature","properties":{"CTUID":"5350573.03","MR_q":4,"HD_q":3,"pop2021":6410},"geometry":{"type":"Polygon","coordinates":[[[-79.7704,43.68799],[-79.78243,43.69383],[-79.79206,43.70092],[-79.78669,43.70584],[-79.76694,43.69112],[-79.7704,43.68799]]]}},{"type":"Feature","properties":{"CTUID":"5350562.11","MR_q":3,"HD_q":2,"pop2021":3110},"geometry":{"type":"Polygon","coordinates":[[[-79.73038,43.72864],[-79.72764,43.72694],[-79.72682,43.72446],[-79.7298,43.72317],[-79.73398,43.71929],[-79.74211,43.72535],[-79.73582,43.72949],[-79.73038,43.72864]]]}},{"type":"Feature","properties":{"CTUID":"5350564.01","MR_q":4,"HD_q":2,"pop2021":2351},"geometry":{"type":"Polygon","coordinates":[[[-79.70098,43.72656],[-79.69741,43.7212],[-79.70261,43.71946],[-79.70536,43.71542],[-79.71122,43.71981],[-79.70694,43.72722],[-79.70399,43.72786],[-79.70098,43.72656]]]}},{"type":"Feature","properties":{"CTUID":"5350564.02","MR_q":5,"HD_q":2,"pop2021":4893},"geometry":{"type":"Polygon","coordinates":[[[-79.69764,43.72742],[-79.70012,43.72641],[-79.70399,43.72786],[-79.70669,43.72737],[-79.71122,43.71981],[-79.71742,43.72448],[-79.70667,43.73405],[-79.69764,43.72742]]]}},{"type":"Feature","properties":{"CTUID":"5350587.01","MR_q":1,"HD_q":1,"pop2021":6072},"geometry":{"type":"Polygon","coordinates":[[[-79.88252,43.8302],[-79.91565,43.80081],[-80.07123,43.91549],[-80.06589,43.92021],[-80.07132,43.92423],[-79.97086,43.94722],[-79.85114,43.8583],[-79.88252,43.8302]]]}},{"type":"Feature","properties":{"CTUID":"5350587.02","MR_q":1,"HD_q":2,"pop2021":5640},"geometry":{"type":"Polygon","coordinates":[[[-80.07731,43.91919],[-79.91565,43.80081],[-79.97964,43.74237],[-80.14411,43.86469],[-80.09713,43.9079],[-80.09323,43.90488],[-80.08304,43.91477],[-80.08695,43.91729],[-80.08265,43.92153],[-80.07731,43.91919]]]}},{"type":"Feature","properties":{"CTUID":"5350576.06","MR_q":3,"HD_q":2,"pop2021":8244},"geometry":{"type":"Polygon","coordinates":[[[-79.77136,43.72931],[-79.76776,43.7286],[-79.7653,43.7255],[-79.77658,43.71596],[-79.79327,43.72816],[-79.78074,43.73632],[-79.77136,43.72931]]]}},{"type":"Feature","properties":{"CTUID":"5350576.07","MR_q":3,"HD_q":1,"pop2021":4495},"geometry":{"type":"Polygon","coordinates":[[[-79.79572,43.72264],[-79.79479,43.72068],[-79.79617,43.71851],[-79.79306,43.71774],[-79.79267,43.71593],[-79.78944,43.71477],[-79.78435,43.71014],[-79.78211,43.71042],[-79.79757,43.696],[-79.81192,43.70656],[-79.80738,43.71378],[-79.79723,43.72346],[-79.79572,43.72264]]]}},{"type":"Feature","properties":{"CTUID":"5350514.01","MR_q":1,"HD_q":1,"pop2021":2355},"geometry":{"type":"Polygon","coordinates":[[[-79.61084,43.55529],[-79.61365,43.55225],[-79.62308,43.54677],[-79.63803,43.53315],[-79.64763,43.53558],[-79.64989,43.53524],[-79.6553,43.54118],[-79.65933,43.54253],[-79.65804,43.54323],[-79.65322,43.54245],[-79.65031,43.53946],[-79.64797,43.54268],[-79.64858,43.5445],[-79.64729,43.54656],[-79.64065,43.54653],[-79.64251,43.54922],[-79.64121,43.55058],[-79.63042,43.54819],[-79.62865,43.55137],[-79.62609,43.55271],[-79.61045,43.55637],[-79.61084,43.55529]]]}},{"type":"Feature","properties":{"CTUID":"5350514.02","MR_q":5,"HD_q":3,"pop2021":5464},"geometry":{"type":"Polygon","coordinates":[[[-79.6496,43.53514],[-79.64763,43.53558],[-79.63803,43.53315],[-79.64776,43.5243],[-79.66615,43.53688],[-79.65933,43.54253],[-79.6553,43.54118],[-79.6496,43.53514]]]}},{"type":"Feature","properties":{"CTUID":"5350516.17","MR_q":3,"HD_q":3,"pop2021":3403},"geometry":{"type":"Polygon","coordinates":[[[-79.68389,43.54592],[-79.69113,43.5429],[-79.70423,43.54998],[-79.69811,43.55489],[-79.68854,43.55019],[-79.68317,43.54648],[-79.68389,43.54592]]]}},{"type":"Feature","properties":{"CTUID":"5350516.18","MR_q":2,"HD_q":1,"pop2021":3428},"geometry":{"type":"Polygon","coordinates":[[[-79.70061,43.54763],[-79.69604,43.54617],[-79.69113,43.5429],[-79.69401,43.5417],[-79.70009,43.53631],[-79.71085,43.54428],[-79.70423,43.54998],[-79.70061,43.54763]]]}},{"type":"Feature","properties":{"CTUID":"5350516.20","MR_q":2,"HD_q":1,"pop2021":6104},"geometry":{"type":"Polygon","coordinates":[[[-79.76901,43.5795],[-79.76959,43.57899],[-79.78714,43.59167],[-79.78208,43.59609],[-79.76351,43.5828],[-79.76901,43.5795]]]}},{"type":"Feature","properties":{"CTUID":"5350516.21","MR_q":1,"HD_q":1,"pop2021":2898},"geometry":{"type":"Polygon","coordinates":[[[-79.76832,43.57095],[-79.77069,43.57125],[-79.77884,43.56321],[-79.78486,43.56774],[-79.77123,43.58016],[-79.76267,43.57404],[-79.76832,43.57095]]]}},{"type":"Feature","properties":{"CTUID":"5350516.22","MR_q":1,"HD_q":1,"pop2021":6826},"geometry":{"type":"Polygon","coordinates":[[[-79.76258,43.5701],[-79.75778,43.56666],[-79.75731,43.56498],[-79.76891,43.55618],[-79.77884,43.56321],[-79.77069,43.57125],[-79.76516,43.57212],[-79.76258,43.5701]]]}},{"type":"Feature","properties":{"CTUID":"5350516.23","MR_q":2,"HD_q":1,"pop2021":5541},"geometry":{"type":"Polygon","coordinates":[[[-79.76232,43.55263],[-79.76891,43.55618],[-79.75731,43.56498],[-79.75797,43.56683],[-79.76516,43.57212],[-79.76267,43.57404],[-79.74932,43.56439],[-79.76232,43.55263]]]}},{"type":"Feature","properties":{"CTUID":"5350576.09","MR_q":2,"HD_q":2,"pop2021":3966},"geometry":{"type":"Polygon","coordinates":[[[-79.80589,43.73737],[-79.79327,43.72816],[-79.79723,43.72346],[-79.79909,43.72323],[-79.8018,43.7247],[-79.80199,43.72641],[-79.80593,43.72657],[-79.80617,43.7277],[-79.80826,43.72819],[-79.80774,43.72922],[-79.81148,43.72981],[-79.81243,43.73211],[-79.81325,43.7317],[-79.81489,43.73371],[-79.81704,43.73303],[-79.81599,43.73437],[-79.81631,43.73526],[-79.81726,43.73484],[-79.81671,43.73619],[-79.81904,43.73731],[-79.81832,43.73828],[-79.82001,43.7384],[-79.81443,43.74365],[-79.80589,43.73737]]]}},{"type":"Feature","properties":{"CTUID":"5350585.05","MR_q":1,"HD_q":1,"pop2021":6882},"geometry":{"type":"Polygon","coordinates":[[[-79.72684,43.90354],[-79.71831,43.88805],[-79.72924,43.88656],[-79.73825,43.8796],[-79.75459,43.89146],[-79.75056,43.8947],[-79.74124,43.89695],[-79.73451,43.90353],[-79.73238,43.90342],[-79.72872,43.90665],[-79.72684,43.90354]]]}},{"type":"Feature","properties":{"CTUID":"5350516.24","MR_q":1,"HD_q":1,"pop2021":3953},"geometry":{"type":"Polygon","coordinates":[[[-79.70949,43.52793],[-79.71602,43.5221],[-79.71894,43.52392],[-79.72534,43.52547],[-79.72854,43.52775],[-79.72993,43.53092],[-79.72817,43.52999],[-79.71085,43.54428],[-79.70009,43.53631],[-79.70949,43.52793]]]}},{"type":"Feature","properties":{"CTUID":"5350516.25","MR_q":3,"HD_q":2,"pop2021":3749},"geometry":{"type":"Polygon","coordinates":[[[-79.69668,43.51862],[-79.68724,43.51781],[-79.69747,43.50833],[-79.71602,43.5221],[-79.70009,43.53631],[-79.69274,43.53083],[-79.70456,43.5232],[-79.69668,43.51862]]]}},{"type":"Feature","properties":{"CTUID":"5350516.26","MR_q":4,"HD_q":1,"pop2021":6580},"geometry":{"type":"Polygon","coordinates":[[[-79.68636,43.51861],[-79.68724,43.51781],[-79.69668,43.51862],[-79.70456,43.5232],[-79.69274,43.53083],[-79.68183,43.52278],[-79.68636,43.51861]]]}},{"type":"Feature","properties":{"CTUID":"5350516.28","MR_q":2,"HD_q":1,"pop2021":4571},"geometry":{"type":"Polygon","coordinates":[[[-79.73303,43.56141],[-79.73361,43.56089],[-79.74417,43.56872],[-79.73771,43.57456],[-79.72828,43.56563],[-79.73303,43.56141]]]}},{"type":"Feature","properties":{"CTUID":"5350516.29","MR_q":4,"HD_q":2,"pop2021":4699},"geometry":{"type":"Polygon","coordinates":[[[-79.7274,43.5664],[-79.72828,43.56563],[-79.73048,43.56701],[-79.73771,43.57456],[-79.73326,43.57861],[-79.72258,43.56993],[-79.7274,43.5664]]]}},{"type":"Feature","properties":{"CTUID":"5350520.05","MR_q":4,"HD_q":3,"pop2021":3581},"geometry":{"type":"Polygon","coordinates":[[[-79.62398,43.58315],[-79.62694,43.58067],[-79.63366,43.58174],[-79.63616,43.58334],[-79.62906,43.5893],[-79.62226,43.58459],[-79.62398,43.58315]]]}},{"type":"Feature","properties":{"CTUID":"5350528.11","MR_q":3,"HD_q":5,"pop2021":5232},"geometry":{"type":"Polygon","coordinates":[[[-79.64727,43.60278],[-79.64578,43.60174],[-79.64762,43.59994],[-79.65496,43.60495],[-79.65289,43.60679],[-79.64727,43.60278]]]}},{"type":"Feature","properties":{"CTUID":"5350528.12","MR_q":3,"HD_q":1,"pop2021":5477},"geometry":{"type":"Polygon","coordinates":[[[-79.70453,43.58356],[-79.70822,43.58287],[-79.70944,43.58397],[-79.71251,43.58415],[-79.7168,43.58712],[-79.71528,43.58993],[-79.71737,43.59122],[-79.71753,43.59264],[-79.71208,43.59765],[-79.69724,43.58675],[-79.70453,43.58356]]]}},{"type":"Feature","properties":{"CTUID":"5350528.13","MR_q":2,"HD_q":1,"pop2021":3397},"geometry":{"type":"Polygon","coordinates":[[[-79.68648,43.57656],[-79.69346,43.57046],[-79.69286,43.57258],[-79.694,43.57447],[-79.69801,43.57578],[-79.69993,43.57806],[-79.70381,43.57726],[-79.7048,43.57906],[-79.70826,43.58064],[-79.70842,43.58232],[-79.69724,43.58675],[-79.68515,43.57785],[-79.68648,43.57656]]]}},{"type":"Feature","properties":{"CTUID":"5350528.15","MR_q":4,"HD_q":1,"pop2021":4194},"geometry":{"type":"Polygon","coordinates":[[[-79.68982,43.58795],[-79.68597,43.58777],[-79.67905,43.58346],[-79.68515,43.57785],[-79.69724,43.58675],[-79.69259,43.58966],[-79.68982,43.58795]]]}},{"type":"Feature","properties":{"CTUID":"5350528.16","MR_q":3,"HD_q":1,"pop2021":5079},"geometry":{"type":"Polygon","coordinates":[[[-79.67443,43.58762],[-79.67905,43.58346],[-79.68597,43.58777],[-79.69033,43.58807],[-79.69259,43.58966],[-79.6851,43.59545],[-79.67443,43.58762]]]}},{"type":"Feature","properties":{"CTUID":"5350528.18","MR_q":3,"HD_q":1,"pop2021":6633},"geometry":{"type":"Polygon","coordinates":[[[-79.67766,43.6076],[-79.67144,43.60297],[-79.67499,43.60049],[-79.68089,43.59895],[-79.68738,43.60592],[-79.6956,43.61209],[-79.69023,43.61693],[-79.67766,43.6076]]]}},{"type":"Feature","properties":{"CTUID":"5350528.19","MR_q":3,"HD_q":2,"pop2021":5068},"geometry":{"type":"Polygon","coordinates":[[[-79.6662,43.59492],[-79.66905,43.59229],[-79.68089,43.59895],[-79.67499,43.60049],[-79.67144,43.60297],[-79.66369,43.59725],[-79.6662,43.59492]]]}},{"type":"Feature","properties":{"CTUID":"5350528.20","MR_q":4,"HD_q":1,"pop2021":5726},"geometry":{"type":"Polygon","coordinates":[[[-79.71297,43.65225],[-79.71388,43.65177],[-79.73309,43.66602],[-79.72261,43.67561],[-79.70117,43.66021],[-79.7085,43.65424],[-79.71297,43.65225]]]}},{"type":"Feature","properties":{"CTUID":"5350528.21","MR_q":4,"HD_q":4,"pop2021":4781},"geometry":{"type":"Polygon","coordinates":[[[-79.73592,43.65147],[-79.74374,43.65642],[-79.73309,43.66602],[-79.72327,43.65867],[-79.72864,43.65388],[-79.73373,43.65299],[-79.73592,43.65147]]]}},{"type":"Feature","properties":{"CTUID":"5350528.22","MR_q":4,"HD_q":2,"pop2021":6329},"geometry":{"type":"Polygon","coordinates":[[[-79.72324,43.64636],[-79.72627,43.64467],[-79.72837,43.64512],[-79.73632,43.65105],[-79.73373,43.65299],[-79.72864,43.65388],[-79.72327,43.65867],[-79.71388,43.65177],[-79.72324,43.64636]]]}},{"type":"Feature","properties":{"CTUID":"5350572.04","MR_q":4,"HD_q":3,"pop2021":3388},"geometry":{"type":"Polygon","coordinates":[[[-79.74147,43.65847],[-79.74374,43.65642],[-79.7542,43.66403],[-79.74897,43.66882],[-79.73857,43.66113],[-79.74147,43.65847]]]}},{"type":"Feature","properties":{"CTUID":"5350572.05","MR_q":4,"HD_q":5,"pop2021":6290},"geometry":{"type":"Polygon","coordinates":[[[-79.73841,43.66127],[-79.74897,43.66882],[-79.74346,43.67355],[-79.73309,43.66602],[-79.73841,43.66127]]]}},{"type":"Feature","properties":{"CTUID":"5350528.24","MR_q":3,"HD_q":2,"pop2021":4983},"geometry":{"type":"Polygon","coordinates":[[[-79.67952,43.62633],[-79.66343,43.61455],[-79.66764,43.61079],[-79.66678,43.60946],[-79.65987,43.60512],[-79.65496,43.60495],[-79.66369,43.59725],[-79.69974,43.62396],[-79.68435,43.62999],[-79.67952,43.62633]]]}},{"type":"Feature","properties":{"CTUID":"5350528.26","MR_q":4,"HD_q":5,"pop2021":6807},"geometry":{"type":"Polygon","coordinates":[[[-79.65385,43.60594],[-79.65496,43.60495],[-79.65979,43.6051],[-79.66381,43.60699],[-79.66764,43.61079],[-79.66343,43.61455],[-79.65289,43.60679],[-79.65385,43.60594]]]}},{"type":"Feature","properties":{"CTUID":"5350528.31","MR_q":4,"HD_q":4,"pop2021":6442},"geometry":{"type":"Polygon","coordinates":[[[-79.75311,43.64693],[-79.75446,43.64679],[-79.74374,43.65642],[-79.73364,43.64907],[-79.75311,43.64693]]]}},{"type":"Feature","properties":{"CTUID":"5350573.05","MR_q":4,"HD_q":2,"pop2021":5978},"geometry":{"type":"Polygon","coordinates":[[[-79.77886,43.66889],[-79.78149,43.66654],[-79.79121,43.67366],[-79.78643,43.67617],[-79.77913,43.68237],[-79.77065,43.6761],[-79.77886,43.66889]]]}},{"type":"Feature","properties":{"CTUID":"5350585.07","MR_q":2,"HD_q":1,"pop2021":7842},"geometry":{"type":"Polygon","coordinates":[[[-79.83891,43.95113],[-79.83718,43.95087],[-79.82141,43.93951],[-79.8171,43.93422],[-79.81041,43.93163],[-79.77618,43.90702],[-79.78101,43.9028],[-79.78378,43.90343],[-79.7923,43.89568],[-79.79313,43.89269],[-79.79689,43.8883],[-79.81304,43.87516],[-79.81438,43.87244],[-79.83368,43.85438],[-79.83636,43.8537],[-79.84049,43.85038],[-79.97086,43.94722],[-79.86407,43.97036],[-79.84293,43.95515],[-79.83891,43.95113]]]}},{"type":"Feature","properties":{"CTUID":"5350585.08","MR_q":1,"HD_q":1,"pop2021":4020},"geometry":{"type":"Polygon","coordinates":[[[-79.74724,43.93959],[-79.74626,43.93768],[-79.75139,43.93167],[-79.7712,43.91376],[-79.77175,43.91108],[-79.77618,43.90702],[-79.81041,43.93163],[-79.8171,43.93422],[-79.82141,43.93951],[-79.83718,43.95087],[-79.83985,43.95147],[-79.84293,43.95515],[-79.86407,43.97036],[-79.7755,43.98976],[-79.74724,43.93959]]]}},{"type":"Feature","properties":{"CTUID":"5350572.07","MR_q":3,"HD_q":2,"pop2021":4650},"geometry":{"type":"Polygon","coordinates":[[[-79.75918,43.65126],[-79.75988,43.65064],[-79.76447,43.65402],[-79.76168,43.6572],[-79.76241,43.67006],[-79.74912,43.66026],[-79.75918,43.65126]]]}},{"type":"Feature","properties":{"CTUID":"5350572.08","MR_q":4,"HD_q":2,"pop2021":5661},"geometry":{"type":"Polygon","coordinates":[[[-79.75051,43.65034],[-79.75446,43.64679],[-79.75988,43.65064],[-79.74912,43.66026],[-79.74374,43.65642],[-79.75051,43.65034]]]}},{"type":"Feature","properties":{"CTUID":"5350528.50","MR_q":3,"HD_q":2,"pop2021":3385},"geometry":{"type":"Polygon","coordinates":[[[-79.73433,43.64604],[-79.74222,43.64568],[-79.74693,43.64199],[-79.75446,43.64679],[-79.73364,43.64907],[-79.73204,43.64788],[-79.73433,43.64604]]]}},{"type":"Feature","properties":{"CTUID":"5350528.51","MR_q":4,"HD_q":1,"pop2021":4420},"geometry":{"type":"Polygon","coordinates":[[[-79.72837,43.64512],[-79.73662,43.64102],[-79.74693,43.64199],[-79.74238,43.64563],[-79.73838,43.64654],[-79.73538,43.64566],[-79.73204,43.64788],[-79.72837,43.64512]]]}},{"type":"Feature","properties":{"CTUID":"5350528.52","MR_q":2,"HD_q":1,"pop2021":6489},"geometry":{"type":"Polygon","coordinates":[[[-79.74494,43.64143],[-79.73662,43.64102],[-79.7397,43.63861],[-79.74684,43.62748],[-79.75351,43.62143],[-79.75525,43.62061],[-79.76247,43.62615],[-79.75733,43.63103],[-79.75882,43.63245],[-79.76468,43.63294],[-79.76705,43.63544],[-79.75446,43.64679],[-79.74494,43.64143]]]}},{"type":"Feature","properties":{"CTUID":"5350528.53","MR_q":1,"HD_q":1,"pop2021":2554},"geometry":{"type":"Polygon","coordinates":[[[-79.76218,43.63233],[-79.75882,43.63245],[-79.75733,43.63103],[-79.76247,43.62615],[-79.75525,43.62061],[-79.76093,43.61468],[-79.77815,43.60957],[-79.79036,43.60223],[-79.79777,43.60762],[-79.76705,43.63544],[-79.76497,43.63311],[-79.76218,43.63233]]]}},{"type":"Feature","properties":{"CTUID":"5350576.73","MR_q":3,"HD_q":1,"pop2021":2587},"geometry":{"type":"Polygon","coordinates":[[[-79.70941,43.7745],[-79.71109,43.77289],[-79.73791,43.79259],[-79.71665,43.81168],[-79.72736,43.8196],[-79.69723,43.84736],[-79.69522,43.84772],[-79.67171,43.8076],[-79.70941,43.7745]]]}},{"type":"Feature","properties":{"CTUID":"5350576.74","MR_q":3,"HD_q":1,"pop2021":8511},"geometry":{"type":"Polygon","coordinates":[[[-79.73697,43.79344],[-79.73791,43.79259],[-79.74888,43.80053],[-79.72736,43.8196],[-79.71665,43.81168],[-79.73697,43.79344]]]}},{"type":"Feature","properties":{"CTUID":"5350576.75","MR_q":3,"HD_q":1,"pop2021":6421},"geometry":{"type":"Polygon","coordinates":[[[-79.74711,43.78466],[-79.74905,43.78303],[-79.7602,43.79123],[-79.74888,43.80053],[-79.73791,43.79259],[-79.74711,43.78466]]]}},{"type":"Feature","properties":{"CTUID":"5350576.76","MR_q":2,"HD_q":1,"pop2021":4803},"geometry":{"type":"Polygon","coordinates":[[[-79.81908,43.72075],[-79.83017,43.72886],[-79.82493,43.73377],[-79.81401,43.7258],[-79.81908,43.72075]]]}},{"type":"Feature","properties":{"CTUID":"5350576.77","MR_q":3,"HD_q":1,"pop2021":5196},"geometry":{"type":"Polygon","coordinates":[[[-79.82167,43.71839],[-79.82447,43.7158],[-79.83534,43.72387],[-79.83017,43.72886],[-79.81911,43.72072],[-79.82167,43.71839]]]}},{"type":"Feature","properties":{"CTUID":"5350576.78","MR_q":4,"HD_q":1,"pop2021":5212},"geometry":{"type":"Polygon","coordinates":[[[-79.63698,43.74676],[-79.63031,43.73544],[-79.63451,43.73374],[-79.63936,43.73733],[-79.66121,43.71765],[-79.72218,43.76328],[-79.71109,43.77289],[-79.68449,43.75313],[-79.67693,43.75938],[-79.67105,43.76257],[-79.64855,43.76716],[-79.64073,43.75144],[-79.63698,43.74676]]]}},{"type":"Feature","properties":{"CTUID":"5350576.79","MR_q":4,"HD_q":1,"pop2021":2684},"geometry":{"type":"Polygon","coordinates":[[[-79.67735,43.72982],[-79.66121,43.71765],[-79.67158,43.7083],[-79.73389,43.75435],[-79.72218,43.76328],[-79.67735,43.72982]]]}},{"type":"Feature","properties":{"CTUID":"5350576.80","MR_q":2,"HD_q":1,"pop2021":3248},"geometry":{"type":"Polygon","coordinates":[[[-79.81979,43.69467],[-79.81764,43.69307],[-79.82057,43.69027],[-79.82107,43.68812],[-79.82992,43.69341],[-79.82277,43.69685],[-79.81979,43.69467]]]}},{"type":"Feature","properties":{"CTUID":"5350576.81","MR_q":3,"HD_q":1,"pop2021":4741},"geometry":{"type":"Polygon","coordinates":[[[-79.82214,43.68823],[-79.82107,43.68812],[-79.82135,43.68732],[-79.82682,43.68232],[-79.83555,43.68879],[-79.82992,43.69341],[-79.82214,43.68823]]]}},{"type":"Feature","properties":{"CTUID":"5350576.82","MR_q":4,"HD_q":1,"pop2021":5296},"geometry":{"type":"Polygon","coordinates":[[[-79.70711,43.76995],[-79.71109,43.77289],[-79.70047,43.78236],[-79.69495,43.77824],[-79.70055,43.7739],[-79.69988,43.77311],[-79.7037,43.77225],[-79.70711,43.76995]]]}},{"type":"Feature","properties":{"CTUID":"5350576.83","MR_q":4,"HD_q":1,"pop2021":2549},"geometry":{"type":"Polygon","coordinates":[[[-79.68824,43.77318],[-79.69313,43.77105],[-79.70055,43.7739],[-79.69495,43.77824],[-79.68824,43.77318]]]}},{"type":"Feature","properties":{"CTUID":"5350576.84","MR_q":3,"HD_q":1,"pop2021":5595},"geometry":{"type":"Polygon","coordinates":[[[-79.78159,43.75461],[-79.79244,43.76248],[-79.78184,43.77219],[-79.77102,43.76425],[-79.78159,43.75461]]]}},{"type":"Feature","properties":{"CTUID":"5350576.85","MR_q":4,"HD_q":1,"pop2021":6827},"geometry":{"type":"Polygon","coordinates":[[[-79.76321,43.75027],[-79.77724,43.75854],[-79.77102,43.76425],[-79.75732,43.75407],[-79.76321,43.75027]]]}},{"type":"Feature","properties":{"CTUID":"5350576.86","MR_q":4,"HD_q":1,"pop2021":4443},"geometry":{"type":"Polygon","coordinates":[[[-79.67024,43.76577],[-79.67123,43.7649],[-79.67503,43.76798],[-79.67517,43.76961],[-79.67157,43.77292],[-79.67736,43.77681],[-79.67369,43.77999],[-79.66323,43.77217],[-79.67024,43.76577]]]}},{"type":"Feature","properties":{"CTUID":"5350576.87","MR_q":3,"HD_q":1,"pop2021":4013},"geometry":{"type":"Polygon","coordinates":[[[-79.67123,43.7649],[-79.67391,43.76255],[-79.68824,43.77318],[-79.67996,43.77516],[-79.67736,43.77681],[-79.67157,43.77292],[-79.67533,43.76894],[-79.67123,43.7649]]]}},{"type":"Feature","properties":{"CTUID":"5350576.88","MR_q":4,"HD_q":1,"pop2021":4353},"geometry":{"type":"Polygon","coordinates":[[[-79.74809,43.77345],[-79.74818,43.77163],[-79.75071,43.77],[-79.75497,43.77204],[-79.75644,43.77099],[-79.76108,43.77441],[-79.75537,43.77881],[-79.74809,43.77345]]]}},{"type":"Feature","properties":{"CTUID":"5350576.89","MR_q":4,"HD_q":1,"pop2021":3694},"geometry":{"type":"Polygon","coordinates":[[[-79.73861,43.7685],[-79.73767,43.76669],[-79.7454,43.76657],[-79.74864,43.76525],[-79.75644,43.77099],[-79.75497,43.77204],[-79.75243,43.77025],[-79.75014,43.77007],[-79.74756,43.7733],[-79.74534,43.77316],[-79.73861,43.7685]]]}},{"type":"Feature","properties":{"CTUID":"5350576.90","MR_q":3,"HD_q":2,"pop2021":3930},"geometry":{"type":"Polygon","coordinates":[[[-79.75791,43.64372],[-79.76521,43.63713],[-79.77059,43.641],[-79.77014,43.64354],[-79.77383,43.64682],[-79.77154,43.64689],[-79.76844,43.64487],[-79.7675,43.64557],[-79.76864,43.65113],[-79.76447,43.65402],[-79.75446,43.64679],[-79.75791,43.64372]]]}},{"type":"Feature","properties":{"CTUID":"5350576.91","MR_q":1,"HD_q":2,"pop2021":12629},"geometry":{"type":"Polygon","coordinates":[[[-79.80345,43.64789],[-79.80102,43.64867],[-79.79228,43.65674],[-79.77954,43.64757],[-79.77373,43.64676],[-79.77014,43.64354],[-79.77059,43.641],[-79.76521,43.63713],[-79.79777,43.60762],[-79.85228,43.64788],[-79.84716,43.65],[-79.82959,43.66702],[-79.80345,43.64789]]]}},{"type":"Feature","properties":{"CTUID":"5350576.92","MR_q":3,"HD_q":3,"pop2021":5764},"geometry":{"type":"Polygon","coordinates":[[[-79.7817,43.75452],[-79.76875,43.7452],[-79.78074,43.73632],[-79.80324,43.75283],[-79.79244,43.76248],[-79.7817,43.75452]]]}},{"type":"Feature","properties":{"CTUID":"5350576.93","MR_q":4,"HD_q":1,"pop2021":8477},"geometry":{"type":"Polygon","coordinates":[[[-79.76166,43.72848],[-79.7653,43.7255],[-79.76776,43.7286],[-79.77124,43.72888],[-79.78074,43.73632],[-79.76875,43.7452],[-79.75481,43.73474],[-79.76166,43.72848]]]}},{"type":"Feature","properties":{"CTUID":"5350576.94","MR_q":4,"HD_q":1,"pop2021":4490},"geometry":{"type":"Polygon","coordinates":[[[-79.67192,43.79495],[-79.67361,43.79375],[-79.67511,43.79484],[-79.67634,43.79435],[-79.68153,43.79914],[-79.67171,43.8076],[-79.66602,43.79763],[-79.67192,43.79495]]]}},{"type":"Feature","properties":{"CTUID":"5350576.95","MR_q":4,"HD_q":1,"pop2021":4269},"geometry":{"type":"Polygon","coordinates":[[[-79.67634,43.79435],[-79.67511,43.79484],[-79.67361,43.79375],[-79.67831,43.79145],[-79.68313,43.78697],[-79.68987,43.79195],[-79.68153,43.79914],[-79.67634,43.79435]]]}},{"type":"Feature","properties":{"CTUID":"5350576.96","MR_q":4,"HD_q":1,"pop2021":7097},"geometry":{"type":"Polygon","coordinates":[[[-79.66061,43.78833],[-79.6586,43.78487],[-79.66349,43.78385],[-79.66376,43.78598],[-79.66759,43.78635],[-79.66721,43.78731],[-79.66843,43.78803],[-79.67165,43.7878],[-79.67622,43.79223],[-79.6703,43.79618],[-79.66602,43.79763],[-79.66061,43.78833]]]}},{"type":"Feature","properties":{"CTUID":"5350576.97","MR_q":3,"HD_q":1,"pop2021":4351},"geometry":{"type":"Polygon","coordinates":[[[-79.67079,43.78751],[-79.66843,43.78803],[-79.66721,43.78731],[-79.66759,43.78635],[-79.66376,43.78598],[-79.66349,43.78385],[-79.66978,43.78306],[-79.67369,43.77999],[-79.68313,43.78697],[-79.67622,43.79223],[-79.67079,43.78751]]]}},{"type":"Feature","properties":{"CTUID":"5350576.98","MR_q":2,"HD_q":2,"pop2021":29669},"geometry":{"type":"Polygon","coordinates":[[[-79.84399,43.68031],[-79.84566,43.67876],[-79.86726,43.69467],[-79.83534,43.72387],[-79.82447,43.7158],[-79.84605,43.69661],[-79.83555,43.68879],[-79.84399,43.68031]]]}},{"type":"Feature","properties":{"CTUID":"5350576.99","MR_q":2,"HD_q":2,"pop2021":5773},"geometry":{"type":"Polygon","coordinates":[[[-79.84689,43.67966],[-79.84566,43.67876],[-79.83555,43.68879],[-79.8276,43.68235],[-79.82915,43.67674],[-79.82788,43.67331],[-79.82503,43.67119],[-79.84716,43.65],[-79.85228,43.64788],[-79.88887,43.67489],[-79.8771,43.68469],[-79.86726,43.69467],[-79.84689,43.67966]]]}},{"type":"Feature","properties":{"CTUID":"5350577.00","MR_q":2,"HD_q":1,"pop2021":9294},"geometry":{"type":"Polygon","coordinates":[[[-79.81717,43.6753],[-79.80736,43.6679],[-79.81776,43.65809],[-79.82959,43.66702],[-79.82503,43.67119],[-79.82827,43.67395],[-79.81731,43.67618],[-79.81717,43.6753]]]}},{"type":"Feature","properties":{"CTUID":"5350577.01","MR_q":3,"HD_q":1,"pop2021":3270},"geometry":{"type":"Polygon","coordinates":[[[-79.80622,43.67449],[-79.80519,43.67038],[-79.80736,43.6679],[-79.81766,43.67575],[-79.80709,43.67825],[-79.80622,43.67449]]]}},{"type":"Feature","properties":{"CTUID":"5350577.02","MR_q":3,"HD_q":1,"pop2021":5173},"geometry":{"type":"Polygon","coordinates":[[[-79.79121,43.67366],[-79.78149,43.66654],[-79.785,43.66337],[-79.79142,43.66495],[-79.79723,43.66885],[-79.80227,43.67406],[-79.80622,43.67449],[-79.80709,43.67825],[-79.79909,43.67987],[-79.79121,43.67366]]]}},{"type":"Feature","properties":{"CTUID":"5350577.03","MR_q":3,"HD_q":1,"pop2021":6193},"geometry":{"type":"Polygon","coordinates":[[[-79.79121,43.6649],[-79.785,43.66337],[-79.79228,43.65674],[-79.80736,43.6679],[-79.80519,43.67038],[-79.80622,43.67449],[-79.80227,43.67406],[-79.79723,43.66885],[-79.79121,43.6649]]]}},{"type":"Feature","properties":{"CTUID":"5350577.04","MR_q":2,"HD_q":1,"pop2021":6712},"geometry":{"type":"Polygon","coordinates":[[[-79.80256,43.64759],[-79.81776,43.65809],[-79.80736,43.6679],[-79.79228,43.65674],[-79.80256,43.64759]]]}},{"type":"Feature","properties":{"CTUID":"5350577.05","MR_q":2,"HD_q":1,"pop2021":5208},"geometry":{"type":"Polygon","coordinates":[[[-79.76581,43.65339],[-79.76759,43.6525],[-79.78068,43.65539],[-79.78249,43.65756],[-79.78289,43.66115],[-79.785,43.66337],[-79.78149,43.66654],[-79.76447,43.65402],[-79.76581,43.65339]]]}},{"type":"Feature","properties":{"CTUID":"5350577.06","MR_q":2,"HD_q":1,"pop2021":5823},"geometry":{"type":"Polygon","coordinates":[[[-79.77558,43.65369],[-79.77026,43.65373],[-79.76759,43.6525],[-79.76881,43.65],[-79.76719,43.64581],[-79.76844,43.64487],[-79.77154,43.64689],[-79.77954,43.64757],[-79.79228,43.65674],[-79.785,43.66337],[-79.78289,43.66115],[-79.78141,43.65593],[-79.77558,43.65369]]]}},{"type":"Feature","properties":{"CTUID":"5350586.03","MR_q":2,"HD_q":2,"pop2021":4674},"geometry":{"type":"Polygon","coordinates":[[[-79.88378,43.82928],[-79.85114,43.8583],[-79.7602,43.79123],[-79.77188,43.78239],[-79.79715,43.75814],[-79.81443,43.74365],[-79.82238,43.75038],[-79.8224,43.75148],[-79.81773,43.75224],[-79.82073,43.75604],[-79.81796,43.75761],[-79.82566,43.76314],[-79.82943,43.7628],[-79.8304,43.76369],[-79.8354,43.7591],[-79.84124,43.76338],[-79.85158,43.75364],[-79.91565,43.80081],[-79.88378,43.82928]]]}},{"type":"Feature","properties":{"CTUID":"5350586.04","MR_q":2,"HD_q":1,"pop2021":6588},"geometry":{"type":"Polygon","coordinates":[[[-79.82348,43.76204],[-79.81796,43.75761],[-79.82073,43.75604],[-79.81773,43.75224],[-79.8224,43.75148],[-79.82177,43.74904],[-79.8354,43.7591],[-79.8304,43.76369],[-79.82348,43.76204]]]}},{"type":"Feature","properties":{"CTUID":"5350586.05","MR_q":2,"HD_q":1,"pop2021":9563},"geometry":{"type":"Polygon","coordinates":[[[-79.81443,43.74365],[-79.81967,43.73873],[-79.82549,43.74246],[-79.83088,43.73822],[-79.83202,43.74008],[-79.83705,43.74256],[-79.85158,43.75364],[-79.84124,43.76338],[-79.81443,43.74365]]]}},{"type":"Feature","properties":{"CTUID":"5350516.50","MR_q":3,"HD_q":1,"pop2021":3934},"geometry":{"type":"Polygon","coordinates":[[[-79.74458,43.5609],[-79.7413,43.55851],[-79.74671,43.55184],[-79.74871,43.55335],[-79.74641,43.55564],[-79.74767,43.55626],[-79.74991,43.55427],[-79.75087,43.5549],[-79.75026,43.55544],[-79.75632,43.55815],[-79.74932,43.56439],[-79.74458,43.5609]]]}},{"type":"Feature","properties":{"CTUID":"5350516.51","MR_q":2,"HD_q":1,"pop2021":4543},"geometry":{"type":"Polygon","coordinates":[[[-79.75318,43.55626],[-79.75026,43.55544],[-79.75087,43.5549],[-79.74991,43.55427],[-79.74767,43.55626],[-79.74641,43.55564],[-79.74871,43.55335],[-79.74671,43.55184],[-79.75486,43.54591],[-79.76265,43.55235],[-79.75632,43.55815],[-79.75318,43.55626]]]}},{"type":"Feature","properties":{"CTUID":"5350520.11","MR_q":2,"HD_q":5,"pop2021":4856},"geometry":{"type":"Polygon","coordinates":[[[-79.63445,43.58466],[-79.63616,43.58334],[-79.64312,43.58428],[-79.63983,43.58724],[-79.64161,43.58821],[-79.63787,43.59144],[-79.63338,43.58899],[-79.63513,43.58737],[-79.6329,43.5858],[-79.63445,43.58466]]]}},{"type":"Feature","properties":{"CTUID":"5350520.12","MR_q":3,"HD_q":5,"pop2021":5010},"geometry":{"type":"Polygon","coordinates":[[[-79.64301,43.58437],[-79.64499,43.58529],[-79.64161,43.58821],[-79.63983,43.58724],[-79.64301,43.58437]]]}},{"type":"Feature","properties":{"CTUID":"5350528.54","MR_q":3,"HD_q":1,"pop2021":2935},"geometry":{"type":"Polygon","coordinates":[[[-79.70877,43.64382],[-79.71678,43.63651],[-79.72837,43.64512],[-79.72627,43.64467],[-79.71388,43.65177],[-79.70608,43.64617],[-79.70877,43.64382]]]}},{"type":"Feature","properties":{"CTUID":"5350528.55","MR_q":3,"HD_q":1,"pop2021":4761},"geometry":{"type":"Polygon","coordinates":[[[-79.72582,43.64321],[-79.71678,43.63651],[-79.72229,43.63279],[-79.72496,43.63562],[-79.73662,43.64102],[-79.72837,43.64512],[-79.72582,43.64321]]]}},{"type":"Feature","properties":{"CTUID":"5350516.52","MR_q":2,"HD_q":1,"pop2021":4704},"geometry":{"type":"Polygon","coordinates":[[[-79.73862,43.54924],[-79.74104,43.5475],[-79.74671,43.55184],[-79.7413,43.55851],[-79.73283,43.55232],[-79.73862,43.54924]]]}},{"type":"Feature","properties":{"CTUID":"5350516.53","MR_q":2,"HD_q":1,"pop2021":2656},"geometry":{"type":"Polygon","coordinates":[[[-79.73558,43.54348],[-79.74104,43.5475],[-79.73283,43.55232],[-79.72763,43.54772],[-79.73558,43.54348]]]}},{"type":"Feature","properties":{"CTUID":"5350527.10","MR_q":2,"HD_q":5,"pop2021":4657},"geometry":{"type":"Polygon","coordinates":[[[-79.64342,43.58663],[-79.64499,43.58529],[-79.65531,43.59288],[-79.64578,43.60174],[-79.63503,43.59376],[-79.64342,43.58663]]]}},{"type":"Feature","properties":{"CTUID":"5350527.11","MR_q":2,"HD_q":5,"pop2021":10056},"geometry":{"type":"Polygon","coordinates":[[[-79.65094,43.57999],[-79.6516,43.57942],[-79.66164,43.58688],[-79.65531,43.59288],[-79.64499,43.58529],[-79.65094,43.57999]]]}},{"type":"Feature","properties":{"CTUID":"5350527.12","MR_q":3,"HD_q":3,"pop2021":4671},"geometry":{"type":"Polygon","coordinates":[[[-79.63667,43.60786],[-79.62615,43.60121],[-79.63091,43.59719],[-79.63462,43.59819],[-79.63833,43.59623],[-79.64553,43.60157],[-79.63789,43.60876],[-79.63667,43.60786]]]}},{"type":"Feature","properties":{"CTUID":"5350527.13","MR_q":2,"HD_q":5,"pop2021":4060},"geometry":{"type":"Polygon","coordinates":[[[-79.63457,43.59414],[-79.63833,43.59623],[-79.63711,43.59728],[-79.63431,43.59822],[-79.63091,43.59719],[-79.63457,43.59414]]]}},{"type":"Feature","properties":{"CTUID":"5350528.56","MR_q":4,"HD_q":2,"pop2021":3455},"geometry":{"type":"Polygon","coordinates":[[[-79.67951,43.57969],[-79.68218,43.58066],[-79.66991,43.59165],[-79.66905,43.59229],[-79.66624,43.59026],[-79.67402,43.58221],[-79.67719,43.57995],[-79.67951,43.57969]]]}},{"type":"Feature","properties":{"CTUID":"5350528.57","MR_q":3,"HD_q":1,"pop2021":4104},"geometry":{"type":"Polygon","coordinates":[[[-79.66407,43.58854],[-79.66164,43.58688],[-79.67152,43.57692],[-79.68349,43.57663],[-79.68515,43.57785],[-79.68218,43.58066],[-79.67951,43.57969],[-79.67666,43.58022],[-79.66848,43.58702],[-79.66624,43.59026],[-79.66407,43.58854]]]}},{"type":"Feature","properties":{"CTUID":"5350528.58","MR_q":3,"HD_q":1,"pop2021":4073},"geometry":{"type":"Polygon","coordinates":[[[-79.65269,43.60311],[-79.64762,43.59994],[-79.65531,43.59288],[-79.66369,43.59725],[-79.65496,43.60495],[-79.65269,43.60311]]]}},{"type":"Feature","properties":{"CTUID":"5350528.59","MR_q":3,"HD_q":1,"pop2021":4224},"geometry":{"type":"Polygon","coordinates":[[[-79.66119,43.58721],[-79.66905,43.59229],[-79.66369,43.59725],[-79.65531,43.59288],[-79.66119,43.58721]]]}},{"type":"Feature","properties":{"CTUID":"5350516.54","MR_q":3,"HD_q":3,"pop2021":4518},"geometry":{"type":"Polygon","coordinates":[[[-79.72278,43.55297],[-79.71753,43.54918],[-79.72381,43.54345],[-79.72763,43.54772],[-79.72278,43.55297]]]}},{"type":"Feature","properties":{"CTUID":"5350516.55","MR_q":3,"HD_q":1,"pop2021":4674},"geometry":{"type":"Polygon","coordinates":[[[-79.73481,43.53343],[-79.7411,43.53656],[-79.73969,43.53985],[-79.73558,43.54348],[-79.72763,43.54772],[-79.72381,43.54345],[-79.73481,43.53343]]]}},{"type":"Feature","properties":{"CTUID":"5350528.60","MR_q":3,"HD_q":3,"pop2021":3626},"geometry":{"type":"Polygon","coordinates":[[[-79.65622,43.6095],[-79.66343,43.61455],[-79.66098,43.61609],[-79.65518,43.61619],[-79.65038,43.61965],[-79.64816,43.61709],[-79.64853,43.61526],[-79.65622,43.6095]]]}},{"type":"Feature","properties":{"CTUID":"5350528.61","MR_q":4,"HD_q":4,"pop2021":4026},"geometry":{"type":"Polygon","coordinates":[[[-79.64817,43.62076],[-79.6422,43.6164],[-79.65289,43.60679],[-79.65639,43.60926],[-79.64853,43.61526],[-79.64816,43.61709],[-79.65038,43.61965],[-79.64817,43.62076]]]}},{"type":"Feature","properties":{"CTUID":"5350528.62","MR_q":5,"HD_q":3,"pop2021":1778},"geometry":{"type":"Polygon","coordinates":[[[-79.6052,43.69425],[-79.59129,43.66892],[-79.61029,43.66136],[-79.62716,43.6526],[-79.66076,43.63969],[-79.69521,43.66542],[-79.69023,43.66962],[-79.67913,43.69292],[-79.6734,43.70113],[-79.67388,43.70627],[-79.66109,43.71776],[-79.64749,43.70764],[-79.6523,43.70328],[-79.64722,43.69949],[-79.62218,43.72238],[-79.6052,43.69425]]]}},{"type":"Feature","properties":{"CTUID":"5350528.63","MR_q":3,"HD_q":1,"pop2021":5942},"geometry":{"type":"Polygon","coordinates":[[[-79.7078,43.62078],[-79.72229,43.63279],[-79.71984,43.6339],[-79.70608,43.64617],[-79.71388,43.65177],[-79.7085,43.65424],[-79.69521,43.66542],[-79.66076,43.63969],[-79.7078,43.62078]]]}},{"type":"Feature","properties":{"CTUID":"5350577.07","MR_q":4,"HD_q":1,"pop2021":3726},"geometry":{"type":"Polygon","coordinates":[[[-79.8085,43.68628],[-79.81191,43.68313],[-79.82107,43.68812],[-79.82069,43.69006],[-79.81764,43.69307],[-79.8085,43.68628]]]}},{"type":"Feature","properties":{"CTUID":"5350577.08","MR_q":3,"HD_q":1,"pop2021":4532},"geometry":{"type":"Polygon","coordinates":[[[-79.8138,43.68142],[-79.81473,43.68054],[-79.81607,43.68111],[-79.81567,43.68006],[-79.81908,43.67661],[-79.82682,43.68232],[-79.82107,43.68812],[-79.81191,43.68313],[-79.8138,43.68142]]]}},{"type":"Feature","properties":{"CTUID":"5350577.09","MR_q":2,"HD_q":2,"pop2021":3472},"geometry":{"type":"Polygon","coordinates":[[[-79.8197,43.67707],[-79.81908,43.67661],[-79.81649,43.67904],[-79.81589,43.68125],[-79.81473,43.68054],[-79.81731,43.67618],[-79.82827,43.67395],[-79.82924,43.67738],[-79.82745,43.68112],[-79.828,43.68299],[-79.8197,43.67707]]]}}]}