{"type":"FeatureCollection","features":[{"type":"Feature","properties":{"fsa":"L4T"},"geometry":{"type":"MultiPolygon","coordinates":[[[[-79.66952728269584,43.6550577992744],[-79.67016330874287,43.65464570441109],[-79.67031680839358,43.65475829324111],[-79.66952728269584,43.6550577992744]]],[[[-79.63047380109188,43.73639659084909],[-79.60969643491642,43.70142831521792],[-79.6133062004628,43.70275839652227],[-79.61449109374635,43.700350697311855],[-79.62257441295029,43.70287951292827],[-79.62951198272026,43.70288179931312],[-79.63591768719422,43.69897881068735],[-79.62398098854644,43.69021899185092],[-79.61319195973802,43.686751380348255],[-79.61087583999543,43.693838305518284],[-79.61170564252976,43.694428153186664],[-79.60709274215071,43.697344160558295],[-79.59129105525443,43.668915751895845],[-79.60832351022918,43.662234301118104],[-79.62715564182471,43.652601874688926],[-79.63776740206961,43.648506912623795],[-79.64756029976948,43.65536268788096],[-79.63618189900896,43.66554208560234],[-79.63221640082071,43.66657961547761],[-79.64279076856289,43.67467144555377],[-79.647148808297,43.67303699227933],[-79.65828150731478,43.66340298829928],[-79.67439291037097,43.675148001709594],[-79.6528014981437,43.69433380552917],[-79.65940409423183,43.69924770911226],[-79.6699502965063,43.689633212134275],[-79.67760492444167,43.69533585394861],[-79.67340280287131,43.701128403817826],[-79.67388081050605,43.70627349971611],[-79.63936207574716,43.737325015300385],[-79.63450552404417,43.733743859009934],[-79.6303093955846,43.73544019135107],[-79.63047380109188,43.73639659084909]]]]}},{"type":"Feature","properties":{"fsa":"L4V"},"geometry":{"type":"Polygon","coordinates":[[[-79.6133062004628,43.70275839652227],[-79.60969643491642,43.70142831521792],[-79.60709274215071,43.697344160558295],[-79.61170564252976,43.694428153186664],[-79.61087583999543,43.693838305518284],[-79.61319195973802,43.686751380348255],[-79.62398098854644,43.69021899185092],[-79.63591768719422,43.69897881068735],[-79.62974839689217,43.70285758915463],[-79.62257441295029,43.70287951292827],[-79.61421808905567,43.70034740095734],[-79.6133062004628,43.70275839652227]]]}},{"type":"Feature","properties":{"fsa":"L4W"},"geometry":{"type":"Polygon","coordinates":[[[-79.60745745282394,43.64466048995549],[-79.60291123493914,43.64465879125446],[-79.59709445919064,43.64296260153779],[-79.59194254306693,43.64459129417422],[-79.58833315848746,43.64242150272525],[-79.5857973481896,43.63781422881067],[-79.61865288790537,43.60789470878887],[-79.62965713615478,43.6165529498502],[-79.63170590877137,43.61415356084149],[-79.63383049187594,43.61978230691116],[-79.64717886586504,43.63042473852363],[-79.65536259241654,43.62606130959131],[-79.66884301017954,43.636069509262555],[-79.62715564182471,43.652601874688926],[-79.61029088998374,43.66135790889923],[-79.59129105525443,43.668915751895845],[-79.5887632451316,43.66460958816982],[-79.60885188864137,43.64643124505853],[-79.60745745282394,43.64466048995549]]]}},{"type":"Feature","properties":{"fsa":"L4X"},"geometry":{"type":"Polygon","coordinates":[[[-79.5857973481896,43.63781422881067],[-79.58555293297488,43.62888670375143],[-79.57533124415727,43.625430805268735],[-79.56849163882957,43.6266842031151],[-79.56706456182526,43.6281573950559],[-79.56387295556772,43.627764909221675],[-79.56370635965925,43.62493880309898],[-79.56559646061619,43.62437281150508],[-79.56849535311358,43.614385397890004],[-79.56392013781367,43.61266968935944],[-79.56729564074928,43.61071479678753],[-79.56674829207093,43.60872491674934],[-79.55980187357567,43.60502030768999],[-79.56886852649352,43.59654999230189],[-79.5680340117816,43.59825878997788],[-79.60255848812251,43.62254968640477],[-79.5857973481896,43.63781422881067]]]}},{"type":"Feature","properties":{"fsa":"L4Y"},"geometry":{"type":"Polygon","coordinates":[[[-79.56791321107299,43.598131204812404],[-79.58303464393157,43.58352732212834],[-79.5872570146484,43.585775296871915],[-79.61857370868844,43.607736202515696],[-79.60255848812251,43.62254968640477],[-79.56791321107299,43.598131204812404]]]}},{"type":"Feature","properties":{"fsa":"L4Z"},"geometry":{"type":"Polygon","coordinates":[[[-79.66884301017954,43.636069509262555],[-79.65536259241654,43.62606130959131],[-79.64717886586504,43.63042473852363],[-79.63383049187594,43.61978230691116],[-79.63170590877137,43.61415356084149],[-79.62965713615478,43.6165529498502],[-79.61865288790537,43.60789470878887],[-79.6350266121444,43.593757000179295],[-79.68434810558271,43.62999121280419],[-79.66884301017954,43.636069509262555]]]}},{"type":"Feature","properties":{"fsa":"L5A"},"geometry":{"type":"Polygon","coordinates":[[[-79.61865288790537,43.60789470878887],[-79.58303464393157,43.58352732212834],[-79.59983507468766,43.56811368767982],[-79.6350266121444,43.593757000179295],[-79.61865288790537,43.60789470878887]]]}},{"type":"Feature","properties":{"fsa":"L5B"},"geometry":{"type":"Polygon","coordinates":[[[-79.59983507468766,43.56811368767982],[-79.60866875194495,43.55822200553342],[-79.6218135110572,43.56040060504409],[-79.63035651148014,43.564239897363585],[-79.66163744040763,43.58688227815553],[-79.64577733709406,43.601738471364754],[-79.59983507468766,43.56811368767982]]]}},{"type":"Feature","properties":{"fsa":"L5C"},"geometry":{"type":"Polygon","coordinates":[[[-79.62133398462797,43.56025070636661],[-79.60866875194495,43.55822200553342],[-79.61001237225868,43.5564060381296],[-79.61296904409713,43.55538488860467],[-79.62112474486267,43.5544211933219],[-79.62759234248085,43.55202290046234],[-79.63009204647236,43.548244108445004],[-79.64120581222136,43.55057829467145],[-79.64251145461213,43.54921620673749],[-79.64064690773442,43.54652880559606],[-79.64728744688745,43.54655808856882],[-79.64858365147228,43.544502442198656],[-79.64797451360027,43.54268091291146],[-79.65042320318172,43.53944583936214],[-79.65322165314042,43.5424546918306],[-79.65817084588174,43.543381805756056],[-79.65500766539749,43.54897219531998],[-79.66389636678743,43.555960048609116],[-79.66759120448069,43.555715008486686],[-79.67386324296474,43.5618702023631],[-79.67735888798505,43.56169008774073],[-79.67969335268954,43.56280659110759],[-79.68340603604787,43.561476245700185],[-79.6848010633464,43.56294228503675],[-79.68736507903515,43.56227902066166],[-79.67568026279804,43.57190271297133],[-79.66163744040763,43.58688227815553],[-79.63035651148014,43.564239897363585],[-79.62133398462797,43.56025070636661]]]}},{"type":"Feature","properties":{"fsa":"L5E"},"geometry":{"type":"Polygon","coordinates":[[[-79.55637338327868,43.602630948164695],[-79.55344493821632,43.59556765036055],[-79.54869415761169,43.594881339386674],[-79.54937823146147,43.590616437262725],[-79.54643074414143,43.58887751432561],[-79.54784858421742,43.587308399223105],[-79.5444611103629,43.5854457928758],[-79.54386628967679,43.58139430249244],[-79.52295964509582,43.56034288131412],[-79.54000914006625,43.545061295089994],[-79.55774950007628,43.561883887512934],[-79.5597256089991,43.5621117956581],[-79.56268686526586,43.564833537999775],[-79.56236765254344,43.56617289903663],[-79.56626640484181,43.569797404706655],[-79.58021630092583,43.579664404853354],[-79.58303464393157,43.58352732212834],[-79.55980187357567,43.60502030768999],[-79.55637338327868,43.602630948164695]]]}},{"type":"Feature","properties":{"fsa":"L5G"},"geometry":{"type":"Polygon","coordinates":[[[-79.56268686526586,43.564833537999775],[-79.54000914006625,43.545061295089994],[-79.55295555903814,43.53293444779389],[-79.58292399978781,43.552406690578806],[-79.58427760882444,43.551171908151495],[-79.5862434135092,43.55287100277287],[-79.58976356912815,43.5535151206615],[-79.59183470590098,43.55159335599475],[-79.59408419905449,43.5519576619288],[-79.60130419403048,43.555088715421824],[-79.60540063909836,43.55502270749369],[-79.60961642219456,43.556942632244144],[-79.60479298694858,43.56343558693235],[-79.58303464393157,43.58352732212834],[-79.58021630092583,43.579664404853354],[-79.56626640484181,43.569797404706655],[-79.56236765254344,43.56617289903663],[-79.56268686526586,43.564833537999775]]]}},{"type":"Feature","properties":{"fsa":"L5H"},"geometry":{"type":"Polygon","coordinates":[[[-79.60570795716784,43.55511650137391],[-79.60130419403048,43.555088715421824],[-79.59712987857151,43.55272385838829],[-79.59183470590098,43.55159335599475],[-79.58976356912815,43.5535151206615],[-79.5862434135092,43.55287100277287],[-79.58427760882444,43.551171908151495],[-79.58292399978781,43.552406690578806],[-79.55295555903814,43.53293444779389],[-79.57711519736462,43.510864369742905],[-79.60677320337581,43.52478709225483],[-79.61098078328293,43.52315459977794],[-79.60949679518794,43.522037998388164],[-79.6121524048234,43.520589091252425],[-79.61554211426902,43.5242003928863],[-79.60719961376728,43.531824606329494],[-79.6116918078214,43.53153699291289],[-79.61134378744818,43.5294438054302],[-79.61387360395332,43.53138972993734],[-79.61710577545831,43.5284210947411],[-79.62635999089886,43.53467660667461],[-79.62828279211472,43.53393428855281],[-79.6343750084572,43.53598819755114],[-79.64113389424739,43.52987390402304],[-79.63803324316815,43.533151414104545],[-79.64762691615809,43.53558299855241],[-79.64989331720992,43.53524059712874],[-79.65530198782311,43.5411840067041],[-79.6593250863565,43.54252789631238],[-79.65803867113686,43.543230392207946],[-79.65322165314042,43.5424546918306],[-79.65030533417709,43.5394579507259],[-79.64797451360027,43.54268091291146],[-79.64858365147228,43.544502442198656],[-79.64728744688745,43.54655808856882],[-79.64064690773442,43.54652880559606],[-79.64251145461213,43.54921620673749],[-79.64120581222136,43.55057829467145],[-79.6304152648541,43.548185000887514],[-79.62833276738881,43.551581591959994],[-79.62112474486267,43.5544211933219],[-79.61360435321167,43.55521260019975],[-79.60961642219456,43.556942632244144],[-79.60570795716784,43.55511650137391]]]}},{"type":"Feature","properties":{"fsa":"L5J"},"geometry":{"type":"Polygon","coordinates":[[[-79.6343750084572,43.53598819755114],[-79.62828279211472,43.53393428855281],[-79.62635999089886,43.53467660667461],[-79.61710577545831,43.5284210947411],[-79.61387360395332,43.53138972993734],[-79.61134378744818,43.5294438054302],[-79.6116918078214,43.53153699291289],[-79.60719961376728,43.531824606329494],[-79.61554211426902,43.5242003928863],[-79.6121524048234,43.520589091252425],[-79.60949679518794,43.522037998388164],[-79.61098078328293,43.52315459977794],[-79.60677320337581,43.52478709225483],[-79.57711519736462,43.510864369742905],[-79.61616444071583,43.47491499285394],[-79.66366849961896,43.509736087503896],[-79.6343750084572,43.53598819755114]]]}},{"type":"Feature","properties":{"fsa":"L5K"},"geometry":{"type":"Polygon","coordinates":[[[-79.64959779445752,43.535138098185776],[-79.64762691615809,43.53558299855241],[-79.63803324316815,43.533151414104545],[-79.66366849961896,43.509736087503896],[-79.68183008892808,43.52277789279565],[-79.6593250863565,43.54252789631238],[-79.65530198782311,43.5411840067041],[-79.64959779445752,43.535138098185776]]]}},{"type":"Feature","properties":{"fsa":"L5L"},"geometry":{"type":"Polygon","coordinates":[[[-79.67758684318089,43.561742241304216],[-79.6735734251583,43.561757282320684],[-79.66759120448069,43.555715008486686],[-79.66389636678743,43.555960048609116],[-79.66130181436822,43.55320139927958],[-79.65785023440478,43.55197245404567],[-79.65502798910734,43.54861679954137],[-79.65813750811839,43.54488510363326],[-79.65803867113686,43.543230392207946],[-79.69747239404498,43.508325504569186],[-79.71757459792063,43.5232494052643],[-79.72455639198512,43.52506819056926],[-79.72780330550665,43.5271107106168],[-79.72992999662178,43.530921907852786],[-79.72817253571307,43.52998598200725],[-79.69428645480737,43.55815458404512],[-79.68736507903515,43.56227902066166],[-79.6848010633464,43.56294228503675],[-79.68340603604787,43.561476245700185],[-79.67969335268954,43.56280659110759],[-79.67758684318089,43.561742241304216]]]}},{"type":"Feature","properties":{"fsa":"L5M"},"geometry":{"type":"Polygon","coordinates":[[[-79.67754399402932,43.573020804791334],[-79.67639299587158,43.5733450940921],[-79.67568026279804,43.57190271297133],[-79.68326124178819,43.565406727670606],[-79.69428645480737,43.55815458404512],[-79.72817253571307,43.52998598200725],[-79.72992999662178,43.530921907852786],[-79.72958269703294,43.529498977531496],[-79.74556889090127,43.53907914252643],[-79.76264655343745,43.55234982924377],[-79.712078284282,43.597651106867005],[-79.68271260010052,43.5760202887515],[-79.67856680331666,43.57474789306449],[-79.67754399402932,43.573020804791334]]]}},{"type":"Feature","properties":{"fsa":"L5N"},"geometry":{"type":"Polygon","coordinates":[[[-79.73736613039006,43.62872890743489],[-79.73479935943543,43.62699880051269],[-79.7346234482444,43.62504301078274],[-79.73204500462994,43.624762340841855],[-79.73326825319842,43.62212564353689],[-79.74136311627849,43.614849304058126],[-79.73947860956504,43.61287470599046],[-79.74314361418496,43.613257089620504],[-79.74758180506481,43.610190490659804],[-79.74916160887976,43.61169339894061],[-79.75198369562139,43.61005851049272],[-79.7461709045711,43.60565734537973],[-79.72879600779598,43.612531193600134],[-79.72780954273428,43.610776849076665],[-79.72140554094524,43.60713974718507],[-79.71794161010102,43.60950054433084],[-79.71498141570459,43.609723950175805],[-79.71239144097291,43.607403239209795],[-79.71814915874651,43.60351964958373],[-79.71803178213324,43.60201610688139],[-79.71512379825978,43.599889811133224],[-79.71628831687431,43.5987322951629],[-79.71277620235014,43.59726120921333],[-79.71434239813128,43.59585619513082],[-79.71521699420634,43.596676404199094],[-79.71598480290095,43.59610880918333],[-79.71485049664949,43.59504258915177],[-79.76264655343745,43.55234982924377],[-79.80649150565115,43.58359499883286],[-79.81025270721952,43.58851262085052],[-79.79992471965608,43.597119890223084],[-79.78822221151367,43.60056199863786],[-79.79035675145532,43.60223143858867],[-79.7781483985919,43.60956662497351],[-79.7609265262484,43.6146845314239],[-79.74586882553383,43.62872341487507],[-79.74317276418321,43.62906294201473],[-79.7388388814857,43.63313705932908],[-79.73608405903158,43.63164555212198],[-79.73736613039006,43.62872890743489]]]}},{"type":"Feature","properties":{"fsa":"L5R"},"geometry":{"type":"Polygon","coordinates":[[[-79.68434810558271,43.62999121280419],[-79.64577733709406,43.601738471364754],[-79.66163744040763,43.58688227815553],[-79.67117700856481,43.593714799364456],[-79.6796388070436,43.59793670080612],[-79.6873758932832,43.605922308134765],[-79.69559690073471,43.61209309987353],[-79.69022930071539,43.61692539083802],[-79.6997374945469,43.623963588602315],[-79.68434810558271,43.62999121280419]]]}},{"type":"Feature","properties":{"fsa":"L5S"},"geometry":{"type":"Polygon","coordinates":[[[-79.6528014981437,43.69433380552917],[-79.69008189564484,43.661624907693195],[-79.70607741953752,43.64616939081272],[-79.71388160997824,43.651774797013374],[-79.70850078487548,43.65423685579199],[-79.69082299968508,43.668695015272355],[-79.67760492444167,43.69533585394861],[-79.6699502965063,43.689633212134275],[-79.65940409423183,43.69924770911226],[-79.6528014981437,43.69433380552917]]]}},{"type":"Feature","properties":{"fsa":"L5T"},"geometry":{"type":"Polygon","coordinates":[[[-79.63618189900896,43.66554208560234],[-79.64756029976948,43.65536268788096],[-79.63776740206961,43.648506912623795],[-79.66075565750018,43.639692921205345],[-79.67713660346527,43.65205393611893],[-79.68510348458375,43.647080393738456],[-79.69141920013745,43.63966159072506],[-79.70323480086627,43.64865620811644],[-79.67439291037097,43.675148001709594],[-79.65828150731478,43.66340298829928],[-79.647148808297,43.67303699227933],[-79.64279076856289,43.67467144555377],[-79.63221640082071,43.66657961547761],[-79.63618189900896,43.66554208560234]],[[-79.6697258929742,43.6550510871845],[-79.67016330874287,43.65464570441109],[-79.66952728269584,43.6550577992744],[-79.6697258929742,43.6550510871845]]]}},{"type":"Feature","properties":{"fsa":"L5V"},"geometry":{"type":"Polygon","coordinates":[[[-79.69559690073471,43.61209309987353],[-79.6796388070436,43.59793670080612],[-79.67117700856481,43.593714799364456],[-79.66163744040763,43.58688227815553],[-79.67555980028695,43.572371990655064],[-79.6789931171876,43.57394249515897],[-79.67856680331666,43.57474789306449],[-79.68271260010052,43.5760202887515],[-79.712078284282,43.597651106867005],[-79.71485049664949,43.59504258915177],[-79.71548921470018,43.59552690675519],[-79.71521699420634,43.596676404199094],[-79.71434239813128,43.59585619513082],[-79.71277620235014,43.59726120921333],[-79.71628831687431,43.5987322951629],[-79.71512379825978,43.599889811133224],[-79.71820158831522,43.603385144904514],[-79.71244971359536,43.607286914419475],[-79.71444164027274,43.609465742097626],[-79.71794161010102,43.60950054433084],[-79.72140554094524,43.60713974718507],[-79.72908063561013,43.61226574208451],[-79.6997374945469,43.623963588602315],[-79.69022930071539,43.61692539083802],[-79.69559690073471,43.61209309987353]]]}},{"type":"Feature","properties":{"fsa":"L5W"},"geometry":{"type":"Polygon","coordinates":[[[-79.66075565750018,43.639692921205345],[-79.7461709045711,43.60565734537973],[-79.75198369562139,43.61005851049272],[-79.74916160887976,43.61169339894061],[-79.74758180506481,43.610190490659804],[-79.74314361418496,43.613257089620504],[-79.73947860956504,43.61287470599046],[-79.74136311627849,43.614849304058126],[-79.73326825319842,43.62212564353689],[-79.73210569358437,43.624528899447306],[-79.7346234482444,43.62504301078274],[-79.73487155393967,43.62710314668897],[-79.73728555366712,43.62843540736308],[-79.73598966618167,43.63141940116529],[-79.73772681035993,43.633113340505986],[-79.74028359489837,43.632371645241655],[-79.74327313643003,43.629005494737946],[-79.74586882553383,43.62872341487507],[-79.73970173176184,43.63861251090234],[-79.73087080340707,43.64459950084994],[-79.7262716698179,43.64467408437733],[-79.71388160997824,43.651774797013374],[-79.70607741953752,43.64616939081272],[-79.70323480086627,43.64865620811644],[-79.69141920013745,43.63966159072506],[-79.68510348458375,43.647080393738456],[-79.67713660346527,43.65205393611893],[-79.66075565750018,43.639692921205345]]]}},{"type":"Feature","properties":{"fsa":"L6P"},"geometry":{"type":"Polygon","coordinates":[[[-79.6485493913231,43.767158407217536],[-79.66691601056517,43.76399200907913],[-79.67304210614348,43.76168629645265],[-79.68449130801605,43.753125501360074],[-79.71108940387555,43.77289029141214],[-79.72217870058971,43.76328169337118],[-79.7602007984795,43.79123411081118],[-79.69723117225749,43.84735504861657],[-79.69521541985577,43.84771811971483],[-79.6485493913231,43.767158407217536]]]}},{"type":"Feature","properties":{"fsa":"L6R"},"geometry":{"type":"Polygon","coordinates":[[[-79.73710988767003,43.75155370379033],[-79.76530416444781,43.72550406826328],[-79.7677586954185,43.728595388777215],[-79.77123982555781,43.728883956482576],[-79.8032358157515,43.75283259316573],[-79.77391661240371,43.780586513082326],[-79.7602007984795,43.79123411081118],[-79.72217870058971,43.76328169337118],[-79.73710988767003,43.75155370379033]]]}},{"type":"Feature","properties":{"fsa":"L6S"},"geometry":{"type":"Polygon","coordinates":[[[-79.64072569947277,43.75144281042532],[-79.6303093955846,43.73544019135107],[-79.63450552404417,43.733743859009934],[-79.63936207574716,43.737325015300385],[-79.67157942959075,43.708297316093095],[-79.7066705877364,43.73405198921232],[-79.73811218720839,43.70562719445324],[-79.76494758598365,43.72561147316505],[-79.73112341155175,43.75682659208923],[-79.71108940387555,43.77289029141214],[-79.68449130801605,43.753125501360074],[-79.67693160333398,43.75938139276392],[-79.67104718685529,43.762572499773704],[-79.6485493913231,43.767158407217536],[-79.64072569947277,43.75144281042532]]]}},{"type":"Feature","properties":{"fsa":"L6T"},"geometry":{"type":"Polygon","coordinates":[[[-79.6855229007955,43.68042902054244],[-79.69022709746338,43.669615914727],[-79.73811218720839,43.70562719445324],[-79.7066705877364,43.73405198921232],[-79.67157942959075,43.708297316093095],[-79.67388081050605,43.70627349971611],[-79.67340280287131,43.701128403817826],[-79.6855229007955,43.68042902054244]]]}},{"type":"Feature","properties":{"fsa":"L6V"},"geometry":{"type":"Polygon","coordinates":[[[-79.73811218720839,43.70562719445324],[-79.75997839592169,43.68589590087375],[-79.78668630873467,43.705839004596584],[-79.76504442931994,43.72571032922302],[-79.73811218720839,43.70562719445324]]]}},{"type":"Feature","properties":{"fsa":"L6W"},"geometry":{"type":"Polygon","coordinates":[[[-79.73811218720839,43.70562719445324],[-79.69022709746338,43.669615914727],[-79.70850078487548,43.65423685579199],[-79.71388160997824,43.651774797013374],[-79.75370889020098,43.68128070641624],[-79.75515030091422,43.679972806856995],[-79.76016219824866,43.68299860671243],[-79.75906200182895,43.684004105550436],[-79.7608771086593,43.68503230046878],[-79.7561979991048,43.689312298687135],[-79.75530278484301,43.688798304985696],[-79.75434590874242,43.69120518887502],[-79.73811218720839,43.70562719445324]]]}},{"type":"Feature","properties":{"fsa":"L6X"},"geometry":{"type":"MultiPolygon","coordinates":[[[[-79.78672961172771,43.617491800617294],[-79.79776718622362,43.607618602928675],[-79.85189338974658,43.647493288195676],[-79.8471580904409,43.65000040322949],[-79.83964639837816,43.65693839035212],[-79.78672961172771,43.617491800617294]]],[[[-79.75906200182895,43.684004105550436],[-79.76126240832981,43.68198410573773],[-79.76521838543933,43.683881700192764],[-79.76617888617525,43.68302770609035],[-79.76700080469264,43.68227128973517],[-79.765377100198,43.680984211994506],[-79.80290863523811,43.64732480541624],[-79.80164590179288,43.64583161263527],[-79.80475578759146,43.64532390772025],[-79.80964310074951,43.64647340599718],[-79.80766314204932,43.65072064143101],[-79.82959141436369,43.66701938929802],[-79.82502760248354,43.6711885095148],[-79.82826978245461,43.67394661095133],[-79.8173133072278,43.676178326303294],[-79.8147261881368,43.6805432061059],[-79.81773279264738,43.68285230299031],[-79.81511581349683,43.68512570563225],[-79.81190851206946,43.683134105648286],[-79.78668630873467,43.705839004596584],[-79.75997839592169,43.68589590087375],[-79.7608771086593,43.68503230046878],[-79.75906200182895,43.684004105550436]]]]}},{"type":"Feature","properties":{"fsa":"L6Y"},"geometry":{"type":"Polygon","coordinates":[[[-79.76521838543933,43.683881700192764],[-79.76126240832981,43.68198410573773],[-79.76016219824866,43.68299860671243],[-79.75515030091422,43.679972806856995],[-79.75370889020098,43.68128070641624],[-79.71388160997824,43.651774797013374],[-79.7262716698179,43.64467408437733],[-79.73087080340707,43.64459950084994],[-79.73970173176184,43.63861251090234],[-79.74683947140367,43.62747754799017],[-79.7609265262484,43.6146845314239],[-79.7781483985919,43.60956662497351],[-79.79035675145532,43.60223143858867],[-79.79776718622362,43.607618602928675],[-79.78672961172771,43.617491800617294],[-79.83964639837816,43.65693839035212],[-79.82959141436369,43.66701938929802],[-79.80766314204932,43.65072064143101],[-79.80964310074951,43.64647340599718],[-79.80475578759146,43.64532390772025],[-79.80164590179288,43.64583161263527],[-79.80290863523811,43.64732480541624],[-79.765377100198,43.680984211994506],[-79.76700080469264,43.68227128973517],[-79.76521838543933,43.683881700192764]]]}},{"type":"Feature","properties":{"fsa":"L6Z"},"geometry":{"type":"Polygon","coordinates":[[[-79.8032358157515,43.75283259316573],[-79.77123982555781,43.728883956482576],[-79.7677586954185,43.728595388777215],[-79.76530416444781,43.72550406826328],[-79.79757258825539,43.69599930450656],[-79.81191738275456,43.70656230160988],[-79.80957371468976,43.71147199729197],[-79.80302599139489,43.71777950771945],[-79.83087651418619,43.738223794822],[-79.82549051703697,43.7424574035028],[-79.81966947790829,43.73872706809035],[-79.8032358157515,43.75283259316573]]]}},{"type":"Feature","properties":{"fsa":"L7A"},"geometry":{"type":"Polygon","coordinates":[[[-79.79757258825539,43.69599930450656],[-79.81190851206946,43.683134105648286],[-79.81511581349683,43.68512570563225],[-79.81773279264738,43.68285230299031],[-79.8147261881368,43.6805432061059],[-79.8173133072278,43.676178326303294],[-79.82826978245461,43.67394661095133],[-79.82502760248354,43.6711885095148],[-79.8471580904409,43.65000040322949],[-79.85227570948787,43.64787910420839],[-79.88887089611107,43.67489059463514],[-79.82992124521557,43.72913130422359],[-79.83647848527403,43.73366375869978],[-79.83087651418619,43.738223794822],[-79.80302599139489,43.71777950771945],[-79.80957371468976,43.71147199729197],[-79.81191738275456,43.70656230160988],[-79.79757258825539,43.69599930450656]]]}},{"type":"Feature","properties":{"fsa":"L7C"},"geometry":{"type":"Polygon","coordinates":[[[-79.87814339169124,43.947063492257385],[-79.84157569835548,43.92013150743932],[-79.8404876364663,43.913841275573645],[-79.83774682783971,43.910020149808254],[-79.83969740524468,43.902894550149504],[-79.8382951593433,43.89617615430896],[-79.84514529767566,43.88844558802318],[-79.8184171903122,43.86887760242001],[-79.80855660587252,43.879066409144045],[-79.75478937996698,43.839921309853544],[-79.74328120752855,43.84889800434938],[-79.71637971679985,43.82934008977153],[-79.75808761407545,43.792444610070994],[-79.77187888875221,43.78239240736771],[-79.77938710541117,43.77435150044226],[-79.81966947790829,43.73872706809035],[-79.82549051703697,43.7424574035028],[-79.83647848527403,43.73366375869978],[-79.82992124521557,43.72913130422359],[-79.88887089611107,43.67489059463514],[-79.9796376951967,43.74237051205089],[-79.94999341212596,43.76933850325584],[-79.95386400693658,43.77181408972314],[-79.95214430084712,43.77423830431193],[-79.97506490514739,43.79125628892055],[-79.96389118740052,43.79987120548024],[-79.95815309908453,43.80530229271474],[-79.95870271211369,43.80658580129394],[-79.96481771912055,43.81028789406707],[-79.9694088093283,43.80937501300712],[-79.97272719869675,43.8072709963567],[-79.97976169570522,43.81252020726227],[-79.96833758778277,43.82393340365689],[-79.97062451142826,43.82545759401707],[-79.96498181352167,43.83317689748131],[-79.96039699995336,43.83074930502174],[-79.95836409089449,43.832504495351486],[-79.94235449861128,43.82065260448893],[-79.91007871280394,43.84968340614259],[-79.93681158770906,43.86949129848737],[-79.91554700263478,43.889126488987834],[-79.90444581168715,43.8977450943464],[-79.89372239868399,43.88982669074509],[-79.88925460459053,43.89375390385844],[-79.88621521403874,43.89449861324707],[-79.86219228592641,43.91831949990285],[-79.88897970509728,43.93798580427293],[-79.87814339169124,43.947063492257385]]]}},{"type":"Feature","properties":{"fsa":"L7E"},"geometry":{"type":"Polygon","coordinates":[[[-79.77550439905883,43.98975751198316],[-79.71449690581152,43.8803675484908],[-79.69763129986816,43.85189830791971],[-79.69483949772119,43.84984059388336],[-79.69521541985577,43.84771811971483],[-79.69723117225749,43.84735504861657],[-79.71637971679985,43.82934008977153],[-79.74328120752855,43.84889800434938],[-79.75478937996698,43.839921309853544],[-79.80855660587252,43.879066409144045],[-79.8184171903122,43.86887760242001],[-79.84514529767566,43.88844558802318],[-79.8382951593433,43.89617615430896],[-79.83969740524468,43.902894550149504],[-79.83774682783971,43.910020149808254],[-79.8404876364663,43.913841275573645],[-79.84157569835548,43.92013150743932],[-79.87814339169124,43.947063492257385],[-79.88897970509728,43.93798580427293],[-79.9172966042723,43.958812711243546],[-79.77550439905883,43.98975751198316]]]}},{"type":"Feature","properties":{"fsa":"L7K"},"geometry":{"type":"Polygon","coordinates":[[[-79.88167180246961,43.89843381166639],[-79.89372239868399,43.88982669074509],[-79.90444581168715,43.8977450943464],[-79.91554700263478,43.889126488987834],[-79.93681158770906,43.86949129848737],[-79.91007871280394,43.84968340614259],[-79.94235449861128,43.82065260448893],[-79.95836409089449,43.832504495351486],[-79.96039699995336,43.83074930502174],[-79.96489429954464,43.833203089235155],[-79.97062451142826,43.82545759401707],[-79.96833758778277,43.82393340365689],[-79.97976169570522,43.81252020726227],[-79.97272719869675,43.8072709963567],[-79.9694088093283,43.80937501300712],[-79.96481771912055,43.81028789406707],[-79.95870271211369,43.80658580129394],[-79.95815309908453,43.80530229271474],[-79.96389118740052,43.79987120548024],[-79.97506490514739,43.79125628892055],[-79.95214430084712,43.77423830431193],[-79.95386400693658,43.77181408972314],[-79.94999341212596,43.76933850325584],[-79.9796376951967,43.74237051205089],[-80.14410981402656,43.86469479916061],[-80.09712807227534,43.907900824021084],[-80.09322657132434,43.90488396149094],[-80.08304075260563,43.914771232942215],[-80.08694772123515,43.91728808280712],[-80.0826466233605,43.921534207538066],[-80.07123381408961,43.91548739075911],[-80.06588943151498,43.92020644207729],[-80.07132049319947,43.92423094921224],[-80.07033229874997,43.92516504372467],[-79.9172966042723,43.958812711243546],[-79.86219228592641,43.91831949990285],[-79.88167180246961,43.89843381166639]]]}}]}